id,address,longitude,latitude,regionId,regionName,terminalCode
127,Binəqədi r. 28 May qəs. Araz Bol market,49.6517649,40.4608028,411,Binəqədi rayonu,141
1711,Binəqədi r. 28 May qəs. Baba market,49.650233,40.461459,411,Binəqədi rayonu,14048
1191,Binəqədi r. 28 May qəs. İmrü market,49.631053,40.467201,411,Binəqədi rayonu,1878
1664,Binəqədi r. 28 May qəs. küç. 11 Tur market ,49.630956,40.460214,411,Binəqədi rayonu,14001
1083,Binəqədi r. 28 May qəs. Quşçuluq massivi. 306 saylı məktəbin yanı. ES market,49.639734,40.458381,411,Binəqədi rayonu,1681
208,Binəqədi r. 3-cü mədən 108-ci korpus Araz Cahid market,49.84624,40.4695,411,Binəqədi rayonu,299
1936,Binəqədi r. 6 mkr. S.Məmmədova küç. Araz Express ,49.830966,40.425764,411,Binəqədi rayonu,16090
301,Binəqədi r. 7-ci mkr. 1260 keçid Ruslan market (çöl),49.849617,40.429214,411,Binəqədi rayonu,429
1839,Binəqədi r. 7-ci mkr. 3123-cü məh. Araz Express,49.849982,40.433151,411,Binəqədi rayonu,15102
282,Binəqədi r. 7-ci mkr. Dairəvi ev. 26 va 28 yanı Tayqa T/M (çöl),49.85183126636378,40.43179997532905,411,Binəqədi rayonu,409
2923,Binəqədi r. 7-ci mkr. keçid 1260. 3123-cü məh. Bizim market,49.847599,40.426909,411,Binəqədi rayonu,51235
2437,Binəqədi r. 7-ci mkr. Xarici Dairəvi küç. 23 Araz minimarket,49.85084351605173,40.430641467068746,411,Binəqədi rayonu,50046
2049,Binəqədi r. 8-ci mkr. C.Xəndan küç. Monte Kristo Ş/S-nın yanı dayanacaq (çöl kartomat),49.839308422555305,40.41750191847531,411,Binəqədi rayonu,18073
2834,Binəqədi r. 8-ci mkr. H.Hüseynov küç. 15 Neptun Supermarket,49.83864,40.41853,411,Binəqədi rayonu,51146
2133,Binəqədi r. 8-ci mkr. İ.Dadaşov küç. 165B Tennis Akademiyasının yanı dayanacaq (çöl kartomat),49.84297242715413,40.42358272525903,411,Binəqədi rayonu,19079
982,Binəqədi r. 8-ci mkr. Nərimanov küç. 3078-ci məh. Araz Express,49.838933,40.420545,411,Binəqədi rayonu,1537
2966,Binəqədi r. 8-ci mkr. S.S.Axundov küç. 5F Rahat Supermarket,49.845227554402406,40.4275653006594,411,Binəqədi rayonu,51278
2490,Binəqədi r. 8-ci mkr. Tər Gül Ticarət mərkəzi Araz Superstore,49.8391992,40.4159994,411,Binəqədi rayonu,50099
2205,Binəqədi r. 9-cu mkr. A.Məmmədov küç. ev. 11 Armo Store,49.807298,40.419385,411,Binəqədi rayonu,21034
2163,Binəqədi r. 9-cu mkr. H.Babaşov küç. 17D Araz Xalisa market (çöl kartomat),49.821117,40.427492,411,Binəqədi rayonu,20030
972,Binəqədi r. 9-cu mkr. H.Seyidzadə küç. 38 Araz Supermarket ,49.809361433090345,40.42039414896294,411,Binəqədi rayonu,1526
922,Binəqədi r. 9-cu mkr. M.Cəlal küç. 133A Bəhruz market,49.807374,40.416115,411,Binəqədi rayonu,1436
3171,Binəqədi r. 9-cu mkr. M.Cəlal küç. 143B Rahat Supermarket,49.818816127154264,40.42589169050259,411,Binəqədi rayonu,51484
2494,Binəqədi r. 9-cu mkr. M.Cəlal küç. 59K Araz Superstore,49.810996,40.4187137,411,Binəqədi rayonu,50103
2450,Binəqədi r. 9-cu mkr. M.Cəlal küç. 59K Araz Superstore,49.81102274410794,40.41876569713149,411,Binəqədi rayonu,50059
2083,Binəqədi r. A.Gəraybəyli küç. 41 Dərnəgül market (çöl kartomat),49.84854,40.417077,411,Binəqədi rayonu,19028
2001,Binəqədi r. A.Kunanbayev küç. Ankara Ş/S-nın qarşısı dayanacaq (çöl kartomat),49.849983339387876,40.42979587328277,411,Binəqədi rayonu,18021
2034,Binəqədi r. A.Kunanbayev küç. Sənan marketin qarşısı dayanacaq (çöl kartomat),49.85442266948248,40.43259911168793,411,Binəqədi rayonu,18055
1996,Binəqədi r. Atatürk pr. 65B Premier market (çöl kartomat),49.8452162,40.4154477,411,Binəqədi rayonu,18016
1168,Binəqədi r. Atatürk pr. ev 56 Nar market (london),49.846673,40.413595,411,Binəqədi rayonu,1855
903,Binəqədi r. Atatürk pr. ev 56 Nar market (london),49.846673,40.413595,411,Binəqədi rayonu,1417
2452,Binəqədi r. Azadlıq küç. 157 Araz Superstore,49.84475,40.43613,411,Binəqədi rayonu,50061
3092,Binəqədi r. Azadlıq küç. 157 Araz Superstore,49.84475847243672,40.436187993217395,411,Binəqədi rayonu,51405
603,Binəqədi r. Azadlıq Metro Stansiyası giriş,49.841726480547116,40.42591769698985,411,Binəqədi rayonu,953
2712,Binəqədi r. Azadlıq pr. ev 189 Avrasiya Klinikası,49.8376362,40.4241469,411,Binəqədi rayonu,51022
3248,Binəqədi r. Bakı-Şamaxı yolu 16. Bazarstore,49.7435582,40.4418162,411,Binəqədi rayonu,51562
1134,Binəqədi r. Bakı-Sumqayıt şos. 3-cü km Bakı Beynəlxalq Avtovağzal Kompleksi,49.79786,40.4186,411,Binəqədi rayonu,1821
892,Binəqədi r. Bakı-Sumqayıt şos. 3-cü km Bakı Beynəlxalq Avtovağzal Kompleksi,49.79786,40.4186,411,Binəqədi rayonu,1406
1879,Binəqədi r. Biləcəri qəs. 5025-ci məh. Kristal Abşeron Y/K. Qarabağ supermarket,49.803883,40.424028,411,Binəqədi rayonu,16028
1653,Binəqədi r. Biləcəri qəs. 505-768 məh. Saral market (çöl),49.810695,40.439967,411,Binəqədi rayonu,13053
2449,Binəqədi r. Biləcəri qəs. A.Zeynallı küç. Araz minimarket,49.802,40.43718,411,Binəqədi rayonu,50058
2692,Binəqədi r. Biləcəri qəs. Binəqədi şos. ev. 0 m. 0 Siti market,49.79594,40.44604,411,Binəqədi rayonu,51002
643,Binəqədi r. Biləcəri qəs. DSK yolu 4 Daş bazarı Murad market ,49.785425216322544,40.441556411191044,411,Binəqədi rayonu,1031
118,Binəqədi r. Biləcəri qəs. DSK yolu Ayan market,49.80510258782061,40.45093724775971,411,Binəqədi rayonu,128
1102,Binəqədi r. Biləcəri qəs. M.Aslanov küç. A Mart,49.809322226986964,40.448323212318115,411,Binəqədi rayonu,1700
2694,Binəqədi r. Biləcəri qəs. Məmmədov küç. 20 Səlim market,49.81134250116745,40.43800133419476,411,Binəqədi rayonu,51004
1476,Binəqədi r. Biləcəri qəs. M.Mikayılov küç. 11 Yeni market,49.79506042905081,40.43777724365753,411,Binəqədi rayonu,11007
1475,Binəqədi r. Biləcəri qəs. M.S.Ordubadi küç. 1A Araz Kivi market,49.81487,40.43588,411,Binəqədi rayonu,11006
841,Binəqədi r. Biləcəri qəs. M.S.Ordubadi küç. Lokomativ market,49.79631,40.435832,411,Binəqədi rayonu,1264
3157,Binəqədi r. Biləcəri qəs. Ordubadi küç. Sarı market (london),49.83179,40.44116,411,Binəqədi rayonu,51470
2120,Binəqədi r. Biləcəri qəs. R.İsmayılov küç. 6 Pepsi market (çöl kartomat),49.800277,40.421146,411,Binəqədi rayonu,19066
2351,Binəqədi r. Biləcəri qəs. R.İsmayılov küç. Army market,49.799035,40.421659,411,Binəqədi rayonu,22064
2196,Binəqədi r. Biləcəri qəs. R.İsmayılov küç. ev 37 Bazarstore,49.798683,40.421867,411,Binəqədi rayonu,21025
2522,Binəqədi r. Biləcəri qəs. X.Məlikaslanov 5C Army market,49.8082703,40.4410293,411,Binəqədi rayonu,50131
2347,Binəqədi r. Biləcəri qəs. X.Məlikaslanov küç. döngə 11 Məhəllə market,49.809089,40.449932,411,Binəqədi rayonu,22060
789,Binəqədi r. Biləcəri qəs. Yeni yaşayış massivi. Araz Sizin market,49.80950672500626,40.44447514030833,411,Binəqədi rayonu,1209
3060,Binəqədi r. Biləcəri qəs. Y.Hüseynov küç. 33C. Araz minimarket,49.80439,40.4322,411,Binəqədi rayonu,51373
869,Binəqədi r. Biləcəri qəs. Y.Hüseynov küç. 85 Anar market,49.8159495828348,40.432536917288644,411,Binəqədi rayonu,1293
3154,Binəqədi r. Biləcəri qəs. Y.Hüseynov küç. Rahat Supermarket,49.808082,40.432099,411,Binəqədi rayonu,51467
2289,Binəqədi r. Biləcəri ŞTQ. 5057-5068-ci məh. ev. 4 Maşallah market,49.809521,40.443803,411,Binəqədi rayonu,22000
942,Binəqədi r. Biləcəri ŞTQ. Binəqədi qəs. Araz minimarket,49.79722,40.446782,411,Binəqədi rayonu,1456
1170,Binəqədi r. Biləcəri ŞTQ. Binəqədi şos. 54 Turan market,49.805304,40.450934,411,Binəqədi rayonu,1857
213,Binəqədi r. Biləcəri ŞTQ. Y.Hüseynov ev 56 Biləcəri market,49.7960875,40.4313483,411,Binəqədi rayonu,305
1393,Binəqədi r. Binəqədi-Biləcəri şos. AL market,49.81321586948446,40.45454826212421,411,Binəqədi rayonu,4117
1205,Binəqədi r. Binəqədi-Biləcəri şos. Ləlvər market ,49.816938775579374,40.45544627364679,411,Binəqədi rayonu,1892
103,Binəqədi r. Binəqədi k. Dağlar məh. A Mart,49.821896728274254,40.471799476055644,411,Binəqədi rayonu,111
1861,Binəqədi r. Binəqədi-Mehdiabad yolu. 3-cü mədən Araz Xəzər market,49.8479615,40.4655965,411,Binəqədi rayonu,16010
412,Binəqədi r. Binəqədi qəs. 182 saylı məktəbin yanı Mini market,49.82574,40.470757,411,Binəqədi rayonu,612
1328,Binəqədi r. Binəqədi qəs. 1-ci mədən korpus 9 Favorita market,49.810212,40.464574,411,Binəqədi rayonu,2260
358,Binəqədi r. Binəqədi qəs. 2-ci mədən Araz Express,49.83427,40.472115,411,Binəqədi rayonu,558
1966,Binəqədi r. Binəqədi qəs. 2-ci mədən Muxtar market,49.8379643,40.4660648,411,Binəqədi rayonu,17030
1516,Binəqədi r. Binəqədi qəs. C.Cabbarlı küç. ev. 85 Yeni market,49.814433,40.47008,411,Binəqədi rayonu,11049
1995,Binəqədi r. Binəqədi qəs. G.Ramazanov küç. Sədəf aptek (çöl kartomat),49.82814,40.467053,411,Binəqədi rayonu,18015
2967,Binəqədi r. Binəqədi qəs. Mədən 3 ev 140 m. 1 Rahat Supermarket,49.842295,40.467571,411,Binəqədi rayonu,51279
280,Binəqədi r. Binəqədi qəs. mədən 3 OBA Binəqədi-2 market (çöl),49.84169,40.46754,411,Binəqədi rayonu,407
1179,Binəqədi r. Binəqədi qəs. M.Ələkbərov küç. CC market,49.815572,40.47362,411,Binəqədi rayonu,1866
1830,Binəqədi r. Binəqədi qəs. Mərkəzi küç. Qız Qalası market,49.82846279610074,40.46783480241411,411,Binəqədi rayonu,15093
129,Binəqədi r. Binəqədi qəs. Qız Qalası market,49.816589,40.462432,411,Binəqədi rayonu,201
3088,Binəqədi r. Binəqədi şos. 185 Murad market,49.83644876934398,40.422028860141786,411,Binəqədi rayonu,51401
1501,Binəqədi r. Binəqədi şos. 308C Tayqa Ticarət,49.8425428,40.4562541,411,Binəqədi rayonu,11034
2052,Binəqədi r. Binəqədi şos. ev 1G qeyri-yaşayış sahəsi 79 N-li marşrutun son dayanacağı (çöl kartomat),49.84454214064653,40.440197331456744,411,Binəqədi rayonu,18076
1176,Binəqədi r. Binəqədi ŞTQ. C.Xəndan küç. ev 26/1 Grandmart,49.833867445511586,40.416297806708684,411,Binəqədi rayonu,1863
416,Binəqədi r. Binəqədi ŞTQ. Ə.Naxçıvani küç. ev 13C Medera Hospital,49.84155481167242,40.41649058503654,411,Binəqədi rayonu,617
2687,Binəqədi r. Cavadxan küç. 3245-ci məh. Bravo Express,49.81813,40.42003,411,Binəqədi rayonu,50297
720,Binəqədi r. C.Xəndan küç. Araz Supermarket,49.828925396981624,40.41546230615915,411,Binəqədi rayonu,1120
1956,Binəqədi r. C.Xəndan küç. Araz Supermarket ,49.828925396981624,40.41546230615915,411,Binəqədi rayonu,17019
2336,Binəqədi r. Davudoğlu küç. OBA Xutor-4 market (london),49.834363,40.42324,411,Binəqədi rayonu,22049
1849,Binəqədi r. Dərnəgül qəs. ev 19 aşırım Tayqa T/M (çöl),49.8494201372114,40.416065172600554,411,Binəqədi rayonu,15112
804,Binəqədi r. DSK yolu Elmar market,49.8038839,40.4490042,411,Binəqədi rayonu,1225
2695,Binəqədi r. Ə.Naxçıvani küç. 103 Bazarstore,49.84815264050805,40.41820532507702,411,Binəqədi rayonu,51005
2436,Binəqədi r. Ə.Naxçıvani küç. 14 Bazarstore,49.83888988107841,40.41593310148395,411,Binəqədi rayonu,50044
2635,Binəqədi r. Ə.Naxçıvani küç. 14 Bazarstore,49.83888,40.4159,411,Binəqədi rayonu,50245
2136,Binəqədi r. Ə.Naxçıvani küç. 18A Nursel T/M (çöl kartomat),49.83894,40.41565,411,Binəqədi rayonu,20003
2106,Binəqədi r. Ə.Naxçıvani küç. 23 Elit market (çöl kartomat) ,49.8513829,40.4185323,411,Binəqədi rayonu,19052
1136,Binəqədi r. Ə.Naxçıvani küç. 30/68 Az market,49.8519,40.41937,411,Binəqədi rayonu,1823
2509,Binəqədi r. Ə.Naxçıvani küç. 39L Bravo Convenience,49.8401163,40.4161375,411,Binəqədi rayonu,50118
1899,Binəqədi r. Ə.Naxçıvani küç. ev 26 m. 1 Manqal dönər (london),49.84289108304144,40.41657821162053,411,Binəqədi rayonu,16048
2067,Binəqədi r. Ə.Naxçıvani küç. Real-S market (çöl kartomat),49.855425469482256,40.41943865581134,411,Binəqədi rayonu,19012
1458,Binəqədi r. F.Məlikov 7 MKR EV.-M 18A Araz Supermarket,49.85260140572769,40.42886931318383,411,Binəqədi rayonu,10056
731,Binəqədi r. Gülüstan küç. döngə 10 OBA Binəqədi-13 market,49.833067,40.476929,411,Binəqədi rayonu,1132
2177,Binəqədi r. H.Həsən qəs. S.G.Məmmədzadə küç. Zeytun market,49.773777,40.415502,411,Binəqədi rayonu,21006
2324,Binəqədi r. Hökməli dairəsi Mir Kamran market  ,49.744871,40.441407,411,Binəqədi rayonu,22036
2167,Binəqədi r. H.Seyidzadə küç. Kamil market-in qarşısı (çöl kartomat) ,49.808812811810114,40.42018049113647,411,Binəqədi rayonu,20035
2470,Binəqədi r. İ.Dadaşov küç. 91 Araz Supermarket,49.842592,40.4248691,411,Binəqədi rayonu,50079
2408,Binəqədi r. İ.Dadaşov küç. Bizim market,49.8433252,40.4145638,411,Binəqədi rayonu,50016
2397,Binəqədi r. İ.Dadaşov küç. Bizim market,49.8433252,40.4145638,411,Binəqədi rayonu,50005
2236,Binəqədi r. İ.Dadaşov küç. Tennis Akademiyasının 1-ci mərtəbəsi Bravo Express,49.84273245599015,40.42253448856391,411,Binəqədi rayonu,21067
2311,Binəqədi r. İ.Dağıstanlı küç. 32 Bravo Convenience,49.836107,40.421939,411,Binəqədi rayonu,22023
3038,Binəqədi r. İ.Haşımov küç. 1A Araz Supermarket,49.82783,40.42661,411,Binəqədi rayonu,51351
1116,Binəqədi r. Masazır küç. 1 Məhəllə market,49.826735,40.422576,411,Binəqədi rayonu,1803
2141,Binəqədi r. M.Cəlal küç. 11 Safastore-nin qarşısı (çöl kartomat) ,49.803878698317995,40.41363972951168,411,Binəqədi rayonu,20008
2146,Binəqədi r. M.Cəlal küç. 65 N-li avtobusun sonuncu dayanacağı dayanacaq (çöl kartomat),49.8179889406463,40.4235676901416,411,Binəqədi rayonu,20013
2373,Binəqədi r. M.Cəlal küç. Bolmart,49.81491869632985,40.421321895752705,411,Binəqədi rayonu,22086
552,Binəqədi r. M.Cəlal küç. Bolmart,49.81491869632985,40.421321895752705,411,Binəqədi rayonu,900
2693,Binəqədi r. M.Cəlal küç. Bolmart,49.815338,40.421523,411,Binəqədi rayonu,51003
2519,Binəqədi r. M.Cəlal küç. Bolmart,49.81487,40.42132,411,Binəqədi rayonu,50128
2033,Binəqədi r. M.Cəlal küç. Bolmart ilə üzbəüz dayanacaq (çöl kartomat),49.814485,40.421266,411,Binəqədi rayonu,18054
2192,Binəqədi r. Mədən 2 ev 75 Nihat market ,49.841856655995,40.461493657086166,411,Binəqədi rayonu,21021
2446,Binəqədi r. Mədən 2 Korpus 52 Araz minimarket,49.8292611,40.4660187,411,Binəqədi rayonu,50055
1047,Binəqədi r. Mədən 2 Korpus 63 ev 13A Qız Qalası X market,49.82933572706207,40.46357535725987,411,Binəqədi rayonu,1644
1574,Binəqədi r. M.Ə.Rəsulzadə qəs. A.Hüseynov küç. 10 Sirab market (çöl),49.842373,40.436388,411,Binəqədi rayonu,12038
1253,Binəqədi r. M.Ə.Rəsulzadə qəs. A.Məmmədov ev 17A Market,49.83781481756636,40.43518449627924,411,Binəqədi rayonu,2031
2009,Binəqədi r. M.Ə.Rəsulzadə qəs. Azadlıq pr. Favorit marketin yanı dayanacaq (çöl kartomat),49.844369240646444,40.43558444208542,411,Binəqədi rayonu,18029
2590,Binəqədi r.  M.Ə.Rəsulzadə qəs.  Binəqədi şos. ev 195E Spar market,49.8443,40.43622,411,Binəqədi rayonu,50199
1078,Binəqədi r. M.Ə.Rəsulzadə qəs. Binəqədi şos. ev 195E Spar market,49.8443,40.43622,411,Binəqədi rayonu,1676
385,Binəqədi r. M.Ə.Rəsulzadə qəs. Binəqədi şos. Röya market,49.83714911186778,40.449950109135834,411,Binəqədi rayonu,585
1,Binəqədi r. M.Ə.Rəsulzadə qəs. Sarabski küç. ev 1 Üçlər market,49.8350288,40.4372123,411,Binəqədi rayonu,1
966,Binəqədi r. M.Ə.Rəsulzadə qəs. V.Qəmbərov küç. Orxan market ,49.84102581167281,40.43154614511696,411,Binəqədi rayonu,1520
151,Binəqədi r. Motodrom ətrafı. Bina 1 m. 318 AL market,49.791496,40.425225,411,Binəqədi rayonu,231
1564,Binəqədi r. M.Rəsulzadə qəs. Z.Qənbərov küç. 24-22 Grandmart,49.8392109,40.435142,411,Binəqədi rayonu,12026
630,Binəqədi r. Nəsimi Metro Stansiyası giriş,49.826329,40.424422,411,Binəqədi rayonu,1018
1043,Binəqədi r. N.Nərimanov küç. 81 Fərid market (london),49.83978103373692,40.42179191825312,411,Binəqədi rayonu,1639
2529,Binəqədi r. R.Allahverdiyev küç. 1. A Plus market,49.769752,40.431596,411,Binəqədi rayonu,50138
90,Binəqədi r. R.Allahverdiyev küç. Grado market,49.768095,40.418206,411,Binəqədi rayonu,95
2399,Binəqədi r. S.Bəhlulzadə küç. 17 Bazarstore ,49.828138,40.413282,411,Binəqədi rayonu,50007
3082,Binəqədi r. S.Bəhlulzadə küç. ev. 5A AL market,49.837915,40.413661,411,Binəqədi rayonu,51395
3050,Binəqədi r. S.Məmmədova küç. 122 Bravo Express,49.8230862,40.4243414,411,Binəqədi rayonu,51363
2511,Binəqədi r. Ş.Məmmədova küç. 2 Bravo Superstore,49.8468657,40.4193797,411,Binəqədi rayonu,50120
2516,Binəqədi r. Ş.Məmmədova küç. 2 Bravo Superstore,49.8468657,40.4193797,411,Binəqədi rayonu,50125
2520,Binəqədi r. Ş.Məmmədova küç. 2 Bravo Superstore,49.8468657,40.4193797,411,Binəqədi rayonu,50129
718,Binəqədi r. S.Məmmədova küç. ev. 41D Market (london),49.829018,40.424976,411,Binəqədi rayonu,1118
1232,Binəqədi r. S.S.Axundov ev 3C Araz Supermarket ,49.84956465572963,40.42672211624973,411,Binəqədi rayonu,2010
2051,Binəqədi r. S.S.Axundov küç. Brend Şərab evi (çöl kartomat),49.85431575988308,40.42637703210796,411,Binəqədi rayonu,18075
205,Binəqədi r. S.S.Axundov küç. ev 73C Azərbaycan Qida Təhlükəsizliyi İnstitutu PHŞ,49.842941,40.42868,411,Binəqədi rayonu,296
3151,Binəqədi r. S.S.Axundov küç. Rahat Supermarket,49.843841,40.4257585,411,Binəqədi rayonu,51464
1692,Binəqədi r. Sulutəpə massivi. Çiçək qəs. Nur market,49.751383,40.439027,411,Binəqədi rayonu,14029
1497,Binəqədi r. Sulutəpə qəs. döngə 14 ev 15 Məhəllə market,49.777317,40.430459,411,Binəqədi rayonu,11030
125,Binəqədi r. Sulutəpə qəs. Mədən yolu. R.Allahverdiyev küç. AL market ,49.759142,40.426246,411,Binəqədi rayonu,138
1223,Binəqədi r. Sulutəpə qəs. R.Allahverdiyev küç. AL market  ,49.765417,40.435816,411,Binəqədi rayonu,2000
1897,Binəqədi r. Sulutəpə qəs. R.Allahverdiyev küç. Araz minimarket ,49.773178,40.433934,411,Binəqədi rayonu,16046
2696,Binəqədi r. Sulutəpə qəs. R.Allahverdiyev küç. Araz minimarket 2,49.77135,40.432685,411,Binəqədi rayonu,51006
2368,Binəqədi r. Sulutəpə qəs. R.Allahverdiyev küç. Ayaz market ,49.758859,40.435004,411,Binəqədi rayonu,22081
1551,Binəqədi r. Sulutəpə qəs. R.Allahverdiyev küç. Bizim market,49.768048,40.430784,411,Binəqədi rayonu,12013
876,Binəqədi r. Sulutəpə qəs. R.Allahverdiyev küç. Fərid market ,49.759397,40.438595,411,Binəqədi rayonu,1300
1963,Binəqədi r. Sulutəpə qəs. R.Allahverdiyev küç. Onur market,49.759803,40.424077,411,Binəqədi rayonu,17027
2172,Binəqədi r. Sulutəpə qəs. R.Allahverdiyev küç. Şərab evi,49.770322,40.432128,411,Binəqədi rayonu,21001
3114,Binəqədi r. Sulutəpə qəs. Sulutəpə-Xocəsən qəs. kəs. R.Allahverdiyev küç. Rahat Supermarket,49.768541,40.414632,411,Binəqədi rayonu,51427
2832,Binəqədi r. Xarici dairəvi küç. Bravo Express,49.85,40.429668,411,Binəqədi rayonu,51144
74,Binəqədi r. Xırdalan-Binəqədi şos. Davam market,49.78127469925571,40.451618716030936,411,Binəqədi rayonu,77
2915,Binəqədi r. Xırdalan-Binəqədi şos. Neptun Hipermarket,49.77737,40.4482,411,Binəqədi rayonu,51227
2914,Binəqədi r. Xırdalan-Binəqədi şos. Neptun Hipermarket,49.77737,40.4482,411,Binəqədi rayonu,51226
1413,Binəqədi r. Xırdalan-Binəqədi şos. Nihat market,49.78703661181072,40.45453140881802,411,Binəqədi rayonu,10008
1079,Binəqədi r. Xırdalan-Binəqədi şos. Qarabağ Ucuz market ,49.77825426934445,40.44978372315932,411,Binəqədi rayonu,1677
1086,Binəqədi r. Xırdalan-Binəqədi şos. Söyüdlər məh. Xəzər market,49.782670794480914,40.45287973336768,411,Binəqədi rayonu,1684
1816,Binəqədi r. X.Məlikaslanov küç. Döngə 4. Araz mini market,49.8094608,40.4444992,411,Binəqədi rayonu,15077
986,Binəqədi r. Xocasən qəs. Yeni Yol küç. Halal market ,49.773114,40.413129,411,Binəqədi rayonu,1542
1044,Binəqədi r. Xocasən qəs. Yeni Yol küç. Məst market,49.770768,40.405298,411,Binəqədi rayonu,1640
612,Binəqədi r. Xocəsən yolu. Bol store,49.771342,40.406881,411,Binəqədi rayonu,1000
1536,Binəqədi r. Xocəsən yolu. R.Allahverdiyev küç. Turan market,49.779126,40.424325,411,Binəqədi rayonu,11070
2307,Binəqədi r. Yol kənarı. Binəqədi mədən 4. Spar supermarket,49.786117,40.453957,411,Binəqədi rayonu,22019
932,Binəqədi r. Z.Bünyadov küç. 57 24/7 Market  ,49.858111,40.416055,411,Binəqədi rayonu,1446
2685,Nərimanov r. 1965-ci məh. Bravo Express,49.857757,40.41524,1,Nərimanov rayonu,50295
2606,Nərimanov r. A.A.Bakıxanov küç. məh. 758/759 Spar market (Gənclik filialı)   ,49.84660227020315,40.390311173755116,1,Nərimanov rayonu,50216
2288,Nərimanov r. A.Aqarunov küç.16 MediStyle Hospital,49.86324021353071,40.40709538913648,1,Nərimanov rayonu,21119
1381,Nərimanov r. A.Heydərov küç. 24A Market,49.878709986570755,40.39926617306032,1,Nərimanov rayonu,4105
1633,Nərimanov r. A.Heydərov küç. 35 Eco market (london),49.88027616767659,40.400580647633944,1,Nərimanov rayonu,13033
30,Nərimanov r. Ak.H.Əliyev küç. 36. 1 saylı Asan Xidmət Mərkəzi (1-ci mərtəbə),49.835096,40.398979,1,Nərimanov rayonu,32
55,Nərimanov r. Ak.H.Əliyev küç. 36. 1 saylı Asan Xidmət Mərkəzi (3-cü mərtəbə),49.835096,40.398979,1,Nərimanov rayonu,57
84,Nərimanov r. Ak.H.Əliyev küç. 36 Asan Kommunal Mərkəzi ,49.834555,40.398907,1,Nərimanov rayonu,89
2968,Nərimanov r. Ak.H.Əliyev pr. 55 Rahat Gourmet market,49.8415559737463,40.40073248920452,1,Nərimanov rayonu,51280
3159,Nərimanov r. Ak.H.Əliyev pr. 55 Rahat Gourmet market (london),49.8415559737463,40.40073248920452,1,Nərimanov rayonu,51472
1376,Nərimanov r. A.M.Cümə küç. 153 Bolmart,49.85759746620144,40.410945949504246,1,Nərimanov rayonu,2309
1006,Nərimanov r. A.M.Cümə küç. 19B Araz Eko market,49.86640194531961,40.4017584163224,1,Nərimanov rayonu,1602
171,Nərimanov r. A.Məmmədov 30. Zəfəran Hospital ,49.88088735874866,40.394343151144724,1,Nərimanov rayonu,256
1250,Nərimanov r. A.Molla Cümə küç.18 Şaiq market (london),49.869590032824334,40.40097102672137,1,Nərimanov rayonu,2028
2458,Nərimanov r. A.Molla Cümə küç. 22 Şok market,49.857102981638384,40.414039658525546,1,Nərimanov rayonu,50067
393,Nərimanov r. A.Neymətulla 70A Araz minimarket,49.86871039722623,40.40900352093975,1,Nərimanov rayonu,593
2160,Nərimanov r. A.Neymətulla küç. 104 World Telecom (çöl kartomat) ,49.872697609468744,40.40264180854114,1,Nərimanov rayonu,20027
1082,Nərimanov r. A.Neymətulla küç. 1950 Günəş Ş/S-nın arxası Xəzər market,49.87559451158856,40.401974044298,1,Nərimanov rayonu,1680
2393,Nərimanov r. A.Neymətulla küç. Bazarstore,49.87811761262999,40.3975529265185,1,Nərimanov rayonu,50001
2301,Nərimanov r. A.Neymətulla küç. ev 20 Araz Supermarket (london),49.87899757084122,40.396629177333594,1,Nərimanov rayonu,22013
2413,Nərimanov r. A.Qayıbov küç. 10Q STN Plaza,49.879310806966245,40.4164258818918,1,Nərimanov rayonu,50021
45,Nərimanov r. A.Qayıbov küç. 11 Enerji satışı departamentinin inzibati binası,49.8802335,40.414358,1,Nərimanov rayonu,47
2579,Nərimanov r. Atatürk pr.27 Bravo Express,49.847294727247,40.408765192794036,1,Nərimanov rayonu,50188
1073,Nərimanov r. Atatürk pr. 4A Şəmkir market,49.8509392,40.4030741,1,Nərimanov rayonu,1671
1109,Nərimanov r. Atatürk pr. 4A Şəmkir market,49.8509392,40.4030741,1,Nərimanov rayonu,1707
852,Nərimanov r. Atatürk pr. ev 33 Yağmur market,49.84719090905383,40.40826645371454,1,Nərimanov rayonu,1276
376,Nərimanov r. Atatürk pr. (Gənclik metro stansiyasının qarşısı) (tumba),49.8520018,40.4014433,1,Nərimanov rayonu,576
2129,Nərimanov r. Atatürk pr. köhnə Miqrasiya İdarəsi dayanacaq (çöl kartomat),49.84546022592997,40.414102470193626,1,Nərimanov rayonu,19075
1952,Nərimanov r. Azadlıq pr. 145 Bravo Convenience,49.83732031280297,40.40203715164836,1,Nərimanov rayonu,17015
1881,Nərimanov r. Azadlıq pr. 145 Bravo Convenience,49.83731687797893,40.402014918324355,1,Nərimanov rayonu,16030
1892,Nərimanov r. Böyük Şor (Daş karxanası) məh. A.Hacıyev küç. ev 406 AL market,49.880149,40.396815,1,Nərimanov rayonu,16041
2132,Nərimanov r. Çaykovski küç. ilə A.Neymətulla küç. kəsişməsi dayanacaq (çöl kartomat),49.878356707567036,40.39639115768049,1,Nərimanov rayonu,19078
887,Nərimanov r. C.Hacıbəyli küç. 22 Prestij market,49.84769149424861,40.387403113294276,1,Nərimanov rayonu,1401
3179,Nərimanov r. C.Hacıbəyli küç. 8 Bravo Express,49.848704718842434,40.38526331038812,1,Nərimanov rayonu,51492
196,Nərimanov r. Ə.Ağaoğlu küç. 11 ADA Universiteti C Binası,49.849565,40.394586,1,Nərimanov rayonu,286
1199,Nərimanov r. Ə.Dəmirçizadə küç və Qarabağ küç. kəsişməsi Whitestone Y/K Bravo Convenience ,49.86061440691795,40.39187096967232,1,Nərimanov rayonu,1886
2471,Nərimanov r. Ə.Əliyev küç. 1/2 Neptun Supermarket,49.868751881942586,40.41596256653721,1,Nərimanov rayonu,50080
2440,Nərimanov r. Ə.Əliyev küç. 1/2 Neptun Supermarket,49.86874883799512,40.41595370220686,1,Nərimanov rayonu,50049
3089,Nərimanov r. Ə.Əliyev küç. 16 Araz Supermarket ,49.878561,40.402925,1,Nərimanov rayonu,51402
754,Nərimanov r. Ə.Əliyev küç. 26 Dərya market,49.876405024999535,40.407045380093614,1,Nərimanov rayonu,1155
3085,Nərimanov r. Ə.Əliyev küç. 55 Okean market,49.87314431478617,40.40945611740062,1,Nərimanov rayonu,51398
2684,Nərimanov r. Ə.Əliyev küç. 65. 1990-cı məh. Bravo Express,49.871045,40.410892,1,Nərimanov rayonu,50294
290,Nərimanov r. Ə.Əliyev küç. 8 məh. 1937 Kosmos Y/K (çöl),49.881801,40.3997,1,Nərimanov rayonu,417
2573,Nərimanov r. Ə.Əliyev küç. bina 26 Bravo Convenience,49.87631360361779,40.406522389718724,1,Nərimanov rayonu,50182
3177,Nərimanov r. Ə.Əliyev küç. ev 19A Rahat supermarket,49.87348118425453,40.40615744407568,1,Nərimanov rayonu,51490
729,"Nərimanov r. Ə.Əliyev küç. ev. 52 m. 1 ""Pro Lizing CO"" MMC",49.8699074,40.4146436,1,Nərimanov rayonu,1130
560,Nərimanov r. Ə.Əlizadə küç. 45 Z market (london),49.85854,40.391869,1,Nərimanov rayonu,909
51,Nərimanov r. Ə.Qayıbov küç. 6 DTX-nin H.Əliyev adına Akademiyası ,49.8807043,40.4112309,1,Nərimanov rayonu,53
2711,Nərimanov r. Ə.Rəcəbli küç. 1 Araz Kosmos market,49.86210074772039,40.410053639384955,1,Nərimanov rayonu,51021
1652,Nərimanov r. Ə.Rəcəbli küç. 1 Teatro Boutique Hotel (çöl),49.86228056693765,40.40973760206529,1,Nərimanov rayonu,13052
2513,Nərimanov r. Ə.Rəcəbli küç. 27B Bravo Express ,49.86772684613115,40.40315365731122,1,Nərimanov rayonu,50122
1349,Nərimanov r. Ə.Rəcəbli küç. 3 Alma market ,49.860636993949626,40.41118911351695,1,Nərimanov rayonu,2281
2153,Nərimanov r. Ə.Rəcəbli küç. Elit Ticarət Mərkəzinin qarşısı dayanacaq (çöl kartomat),49.85478962211723,40.42051021627315,1,Nərimanov rayonu,20020
1802,Nərimanov r. Ə.Rəcəbli küç. ev. məh. 1963 MJ Finance,49.8642234,40.4067818,1,Nərimanov rayonu,15063
3180,Nərimanov r. Ə.Salamzadə küç. məh. 1104 Araz Supermarket,49.846626592502844,40.409450717591476,1,Nərimanov rayonu,51493
2878,Nərimanov r. Ə.Vahid küç. 10 m. 12 Alkapon market,49.8550607,40.3881842,1,Nərimanov rayonu,51190
3273,Nərimanov r. F.X.Xoyski küç. 830 Bazarstore   ,49.850330893726216,40.39971806005247,1,Nərimanov rayonu,51587
2945,Nərimanov r. F.X.Xoyski küç. Gənclik Mall (1-ci mərtəbə),49.8529654196762,40.400257350542674,1,Nərimanov rayonu,51257
2944,Nərimanov r. F.X.Xoyski küç. Gənclik Mall Bravo Superstore ,49.852080157627356,40.399707706381825,1,Nərimanov rayonu,51256
2943,Nərimanov r. F.X.Xoyski küç. Gənclik Mall Bravo Superstore ,49.8529654196762,40.400257350542674,1,Nərimanov rayonu,51255
2027,Nərimanov r. F.X.Xoyski küç. Gənclik Ş/S-nın yanı dayanacaq (çöl kartomat),49.8603185,40.4022599,1,Nərimanov rayonu,18047
2029,Nərimanov r. F.X.Xoyski küç. Nənəmin təndirinin yanı dayanacaq (çöl kartomat),49.86890440009873,40.40575575209107,1,Nərimanov rayonu,18049
2312,Nərimanov r. F.Yusifov k. ev. 59A. Cənnət market,49.874588,40.403381,1,Nərimanov rayonu,22024
2354,Nərimanov r. F.Yusifov küç. 15 Bravo Express,49.875242,40.401359,1,Nərimanov rayonu,22067
2048,Nərimanov r. F.Yusifov küç. 43 Çinar market (çöl kartomat),49.87171239606227,40.406801004984644,1,Nərimanov rayonu,18072
3162,Nərimanov r. F.Yusifov küç. 51A Rahat market ,49.86975677517405,40.409227452996355,1,Nərimanov rayonu,51475
369,Nərimanov r. Gənclik Metro Stansiyası giriş (ADA Universiteti tərəf) ,49.8505792,40.4002158,1,Nərimanov rayonu,569
3219,Nərimanov r. Gənclik Metro Stansiyası giriş (İdman Akademiyası tərəf) ,49.8520728,40.3998969,1,Nərimanov rayonu,51533
1423,Nərimanov r. Gənclik Metro Stansiyası giriş (İdman Akademiyası tərəf) ,49.8520728,40.3998969,1,Nərimanov rayonu,10018
3268,Nərimanov r. G.Qədirbəyova küç. 53 Grandmart,49.86236714488185,40.393868624597744,1,Nərimanov rayonu,51582
131,Nərimanov r. H.Əliyev küç. 135 ADİU,49.861237,40.404473,1,Nərimanov rayonu,205
3184,Nərimanov r. H.Əliyev küç. 82 Gənclik market,49.84850728050145,40.40198492207671,1,Nərimanov rayonu,51497
162,Nərimanov r. H.Əliyev pr. 121 SOCAR (Baş ofis),49.883527,40.405382,1,Nərimanov rayonu,245
1621,Nərimanov r. H.Əliyev pr. ilə A.Neymətulla küç. kəsişməsi yeraltı keçid,49.876473,40.39931,1,Nərimanov rayonu,13020
2916,Nərimanov r. Həsənoğlu küç. 4 Neptun Supermarket,49.868773371840554,40.39792463620158,1,Nərimanov rayonu,51228
2571,Nərimanov r. Həsənoğlu və F.X.Xoyski küç. kəsişməsi Bravo Convenience,49.86303028104521,40.402619725418404,1,Nərimanov rayonu,50180
3249,Nərimanov r. İ.Dadaşov küç. 57 Bravo Express,49.8427541,40.4127315,1,Nərimanov rayonu,51563
910,Nərimanov r. İ.Hidayətzadə k. ev. 20 m- Damla market,49.874316,40.3935151,1,Nərimanov rayonu,1424
2008,Nərimanov r. İ.Hidayətzadə küç. Dərələyəz market (çöl kartomat),49.878630019543436,40.39092421474776,1,Nərimanov rayonu,18028
1994,Nərimanov r. İ.Hidayətzadə küç. ev 28A Montin market (çöl kartomat),49.87097,40.395302,1,Nərimanov rayonu,18014
355,Nərimanov r. İ.P.Dadaşov küç. 53 Araz minimarket,49.84389602235638,40.41037335971097,1,Nərimanov rayonu,555
793,Nərimanov r. İ.P.Dadaşov küç. 57A Xozayka market,49.843264,40.4115905,1,Nərimanov rayonu,1213
2124,Nərimanov r. İ.P.Dadaşov küç. 57A Xozayka market (çöl kartomat),49.84333518627881,40.41169970687841,1,Nərimanov rayonu,19070
1945,Nərimanov r. İ.P.Dadaşov küç. 58 Şərab evi (london)  ,49.8453462,40.407247,1,Nərimanov rayonu,17007
3178,Nərimanov r. K.Kazımzadə küç. Roseville Y/K Bravo Convenience,49.849627477516556,40.390841863422686,1,Nərimanov rayonu,51491
2025,Nərimanov r. K.Rəhimov küç. 29 6 N-li Uşaq Klinik Xəstəxanasının qarşısı dayanacaq (çöl kartomat),49.859377188385125,40.39827535517043,1,Nərimanov rayonu,18045
2499,Nərimanov r. K.Rəhimov küç. Spar market,49.8592906,40.3987791,1,Nərimanov rayonu,50108
744,Nərimanov r. M.Araz küç. 25A English Yard (london),49.840585912628356,40.40585352920338,1,Nərimanov rayonu,1145
1580,Nərimanov r. M.Araz küç. 54 Uğur market (çöl),49.838133091041094,40.405087302267795,1,Nərimanov rayonu,12044
3090,Nərimanov r. Mayakovski küç. ev. 8/9-10 tikili m. C Bloku 1-ci mərtəbə Araz Supermarket,49.8758494,40.394474,1,Nərimanov rayonu,51403
3083,Nərimanov r. M.Əhmədzadə küç. 13 İstanbul market,49.8702582,40.4016946,1,Nərimanov rayonu,51396
3185,Nərimanov r. M.Məmmədzadə küç. ev. 13A m. 35 Araz minimarket,49.870261,40.400345,1,Nərimanov rayonu,51498
3063,Nərimanov r. M.Qaşqay küç. 94 Araz Supermarket ,49.83973413733995,40.401437980892645,1,Nərimanov rayonu,51376
3181,Nərimanov r. M.Qaşqay küç. 94 Araz Supermarket ,49.83973413733995,40.401437980892645,1,Nərimanov rayonu,51494
3084,Nərimanov r. Nərimanov Metro Stansiyası giriş  ,49.8694658,40.4024867,1,Nərimanov rayonu,51397
1763,Nərimanov r. Nərimanov Metro Stansiyası giriş (Metropark tərəf),49.8714576,40.4030311,1,Nərimanov rayonu,15023
3081,Nərimanov r. Nərimanov Metro Stansiyası giriş (Metropark tərəf) ,49.8714576,40.4030311,1,Nərimanov rayonu,51394
3064,Nərimanov r. N.Hacıyev küç. Dəniz market,49.875634614554215,40.402975825985024,1,Nərimanov rayonu,51377
2975,Nərimanov r. N.Hacıyev və F.Yusifov küçələrinin kəsişməsi ev 1950 məh. Araz minimarket,49.8745401173525,40.40235626379939,1,Nərimanov rayonu,51287
1502,Nərimanov r. N.Nərimanov küç. 55 OBA Nərimanov-8 market,49.83635728820192,40.40868138091535,1,Nərimanov rayonu,11035
1411,"Nərimanov r. N.Nərimanov küç. 5A Araz Express
",49.837392150677296,40.40954864657137,1,Nərimanov rayonu,10006
577,Nərimanov r. N.Nərimanov küç. Ramil market,49.8403329,40.4115955,1,Nərimanov rayonu,926
3187,Nərimanov r. O.Əliyev küç. 7 Araz Minimarket ,49.87561171892926,40.39623967261973,1,Nərimanov rayonu,51500
2474,Nərimanov r. Qafur küç.20 Grandmart,49.86028144779899,40.3988535569924,1,Nərimanov rayonu,50083
2461,Nərimanov r. S.Rəhman küç. 41 Araz Supermarket,49.83772263330858,40.40102791763195,1,Nərimanov rayonu,50070
2689,Nərimanov r. S.Rəhman küç. 82B Bravo Express,49.833823,40.399836,1,Nərimanov rayonu,50299
3152,Nərimanov r. Təbriz küç. 106 51A Rahat market,49.87269567848163,40.40348945752598,1,Nərimanov rayonu,51465
2961,Nərimanov r. Təbriz küç.106 Metropark 1-ci mərtəbə,49.87265965219603,40.40348254485279,1,Nərimanov rayonu,51273
2328,Nərimanov r. Təbriz küç. 108 AzDƏMTTET İnstitutu,49.859332649975386,40.393636190693016,1,Nərimanov rayonu,22040
3272,Nərimanov r. Təbriz küç. 60 Rahat market,49.85800555078503,40.39255476398433,1,Nərimanov rayonu,51586
3153,Nərimanov r. Təbriz küç. 60 Rahat market,49.85800555078503,40.39255476398433,1,Nərimanov rayonu,51466
178,Nərimanov r. Təbriz küç. ADU (2-ci korpus),49.86037,40.39507,1,Nərimanov rayonu,265
1982,Nərimanov r. Təbriz küç. Bakı Konqres Mərkəzi ilə üzbəüz dayanacaq (çöl kartomat),49.862651584625574,40.39680110985596,1,Nərimanov rayonu,18000
1732,Nərimanov r. Təbriz küç. Bolmart,49.8507487,40.3852782,1,Nərimanov rayonu,14069
1734,Nərimanov r. T.H.Məmmədov küç. 12. 7 nömrəli market,49.873598,40.39969,1,Nərimanov rayonu,14071
1970,Nərimanov r. Ü.Bünyadzadə küç. Bazarstore ,49.84973254249638,40.38898805244025,1,Nərimanov rayonu,17035
1531,Nərimanov r. Ulduz Metro Stansiyası giriş,49.891699,40.414915,1,Nərimanov rayonu,11065
3091,Nərimanov r. Xətai pr. 15 Şərq Bazarı,49.85578182984063,40.3869261901193,1,Nərimanov rayonu,51404
1640,Nərimanov r. Xətai pr. 7 Yaşıl bazar (çöl),49.85427984727972,40.385370184534814,1,Nərimanov rayonu,13040
2977,Nərimanov r. Xətai pr. T.Şıxəliyev və Qarabağ küç. kəsişməsi Araz Supermarket,49.857258696439295,40.38899316160909,1,Nərimanov rayonu,51289
2479,Nərimanov r. Xətai pr. T.Şıxəliyev və Qarabağ küç. kəsişməsi Araz Supermarket,49.85931388811928,40.39083122943456,1,Nərimanov rayonu,50088
752,Nərimanov r. X.Şuşinski küç. 21 Elit market,49.83572737473127,40.39812654783907,1,Nərimanov rayonu,1153
2396,Nərimanov r. Y.Çəmənzəmənli küç. Bazarstore,49.8363867,40.4021192,1,Nərimanov rayonu,50004
1646,Nərimanov r. Y.V.Çəmənzəmənli küç. Məhəllə market (çöl),49.866969063720184,40.41092196360693,1,Nərimanov rayonu,13046
3247,Nərimanov r. Z.Bünyadov küç. 48/54 Bazarstore,49.8449841,40.4126393,1,Nərimanov rayonu,51561
601,Nərimanov r. Z.Bünyadov küç. 48/54 Bazarstore ,49.84519059850491,40.412582832130234,1,Nərimanov rayonu,951
2164,Nərimanov r. Z.Bünyadov pr. 1965-ci məh. Çinar Park (çöl kartomat),49.85856462450072,40.414462211928516,1,Nərimanov rayonu,20031
1707,Nərimanov r. Z.Bünyadov pr. 38C 1969 məh. KOBİA,49.853792,40.412911,1,Nərimanov rayonu,14044
189,Nərimanov r. Z.Nudirəliyev küç. 83 7 saylı Asan Xidmət Mərkəzi (2-ci mərtəbə),49.856275,40.413543,1,Nərimanov rayonu,278
1013,Nərimanov r. Z.Xəlil küç. 19 Buta market (london),49.87728983666457,40.3937623369731,1,Nərimanov rayonu,1608
2285,Nizami r. 8-ci km qəs. E.Süleymanov küç. Bazarstore,49.9548119,40.4101151,407,Nizami rayonu,21116
1639,Nizami r. A.Hacıyev 115 Qloriya market (çöl),49.933037425587095,40.41720605766738,407,Nizami rayonu,13039
2572,Nizami r. A.Hacıyev küç. 40 Bravo Express,49.933124645127734,40.41657699389975,407,Nizami rayonu,50181
203,Nizami r. A.Manafov küç. ev. 22 GEM,49.932713,40.420318,407,Nizami rayonu,293
1997,Nizami r. Atletlər kəndi ərazisi Koroğlu Nəqliyyat Mübadilə Mərkəzi (çöl kartomat),49.915476685919764,40.423365473520576,407,Nizami rayonu,18017
2781,Nizami r. Babək pr. 28 Asia Motors,49.88677297327748,40.390094812327355,407,Nizami rayonu,51092
2291,Nizami r. Babək pr. 37C Ştutqart mağazası ,49.90318991804538,40.39093249742878,407,Nizami rayonu,22002
1946,Nizami r. B.Çobanzadə k. ev. 63. m. 0 Spar market,49.94,40.39944,407,Nizami rayonu,17008
1470,Nizami r. B.Çobanzadə küç. 144 Araz Supermarket ,49.9366711,40.4031452,407,Nizami rayonu,11001
2277,Nizami r. B.Çobanzadə küç. 61 AL market ,49.94172046448616,40.3996087004241,407,Nizami rayonu,21108
800,Nizami r. B.Çobanzadə. M.Gəncəvi. İ.Nəsimi küç. kəs. 2532-ci məh. Bravo Express,49.931213,40.41109,407,Nizami rayonu,1220
1135,Nizami r. B.Nuriyev 417 Bravo Express ,49.95516704713059,40.402812491817926,407,Nizami rayonu,1822
2924,Nizami r. B.Nuriyev küç. 23/85 məh. Bizim market ,49.95937877043514,40.40382090492363,407,Nizami rayonu,51236
1797,Nizami r. B.Nuriyev küç. 2 məh. 2392/99 Kola market,49.948145689572215,40.399375341018136,407,Nizami rayonu,15058
768,Nizami r. B.Nuriyev küç. 40 m. 29 Ata bala market,49.95631951557647,40.401152322471894,407,Nizami rayonu,1169
3061,Nizami r. B.Nuriyev küç. ev. 32. Araz Supermarket,49.955410424419085,40.40216189451322,407,Nizami rayonu,51374
2983,Nizami r. B.Nuriyev küç. ev.32. Araz Supermarket ,49.955410424419085,40.40216189451322,407,Nizami rayonu,51295
2487,Nizami r. B.Nuriyev küç. məh. 2379-2382 ev 20/116 Grandmart,49.949873381521535,40.398935325959826,407,Nizami rayonu,50096
1506,Nizami r. C.Naxçıvanski 273A Yeni market ,49.95038871637888,40.40625478801517,407,Nizami rayonu,11039
2118,Nizami r. C.Naxçıvanski küç. 12 Aztur market (çöl kartomat),49.94172144198774,40.40142549144052,407,Nizami rayonu,19064
3102,Nizami r. C.Naxçıvanski  küç. 51 Bravo Express,49.9492124,40.4060466,407,Nizami rayonu,51415
2976,Nizami r. C.Naxçıvanski küç. Araz Supermarket,49.95800087754818,40.408470699710996,407,Nizami rayonu,51288
1439,Nizami r. C.Naxçıvanski küç. ev. 50 Armo Store,49.952158,40.405354,407,Nizami rayonu,10034
798,Nizami r. E.Süleymanov küç. 126 Elmir market,49.955987734629964,40.40931437991325,407,Nizami rayonu,1218
1440,Nizami r. E.Süleymanov küç. 25/66 Araz Supermarket ,49.956412370249204,40.40886488933048,407,Nizami rayonu,10035
42,Nizami r. E.Suleymanov küç. 36 Grandmart,49.94919435788958,40.40919193686532,407,Nizami rayonu,44
15,Nizami r. Ə.Navahi küç. Socar Bakı regional qaz ölçü qurğularına xidmət departamenti,49.92205535840861,40.40130300984195,407,Nizami rayonu,15
1190,Nizami r. H.Əliyev pr. 106A Azerfon MMC Baş ofis (london),49.908843091618216,40.41679715392339,407,Nizami rayonu,1877
67,Nizami r. H.Əliyev pr. 115 5 saylı Asan Xidmət Mərkəzi,49.908316,40.417528,407,Nizami rayonu,69
191,Nizami r. H.Əliyev pr. 115 Bina 187B Sport Plaza,49.909182,40.418345,407,Nizami rayonu,280
179,Nizami r. H.Əliyev pr. 8-ci köndələn küç. AL market,49.91024735544192,40.414886528316046,407,Nizami rayonu,266
2677,Nizami r. H.Əliyev pr. Milli Gimnastika Arenasının yanı Bravo Hipermarket,49.91344774307438,40.41821106257887,407,Nizami rayonu,50287
2669,Nizami r. H.Əliyev pr. Milli Gimnastika Arenasının yanı Bravo Hipermarket,49.91344774307438,40.41821106257887,407,Nizami rayonu,50279
2656,Nizami r. H.Əliyev pr. Milli Gimnastika Arenasının yanı Bravo Hipermarket,49.91344774307438,40.41821106257887,407,Nizami rayonu,50266
2567,Nizami r. K.Balakişiyev küç. Bolmart,49.9402022,40.4094055,407,Nizami rayonu,50176
957,Nizami r. K.Balakişiyev küç. Bolmart,49.9402022,40.4094055,407,Nizami rayonu,1511
2335,Nizami r. Keşlə qəs. A.Mirzəyev küç. c21 Happy market,49.88974894229834,40.396547977627186,407,Nizami rayonu,22048
1828,Nizami r. Keşlə qəs. HC Trend Supermarket,49.90361846339672,40.39468036955202,407,Nizami rayonu,15091
2032,Nizami r. Keşlə qəs. İ.Həbibov küç. 49 Ərzaq market (çöl kartomat),49.9146995,40.3907039,407,Nizami rayonu,18053
47,Nizami r. Keşlə qəs. M.Ə.Sabir küç. ev 31 Araz Keşlə market,49.895019242675865,40.395018534686486,407,Nizami rayonu,49
1471,Nizami r. Keşlə qəs. M.Hilal küç. ev 1 Zəhra market,49.8951746,40.3920887,407,Nizami rayonu,11002
347,Nizami r. Keşlə qəs. Yarış küç. 21 Məryam market ,49.8959313,40.3922355,407,Nizami rayonu,546
1213,Nizami r. Keşlə qəs. Z.Məmmədov küç. 2-ci köndələn Sənani market,49.892124,40.405079,407,Nizami rayonu,1900
1837,Nizami r. Koroğlu Metro Stansiyası giriş (Piramida tərəf),49.9177817,40.4202908,407,Nizami rayonu,15100
974,Nizami r. Koroğlu Metro Stansiyası giriş (Piramida tərəf),49.9177817,40.4202908,407,Nizami rayonu,1528
981,Nizami r. Koroğlu Metro Stansiyası giriş (Piramida tərəf),49.9177817,40.4202908,407,Nizami rayonu,1536
3260,Nizami r. M.Abbasov küç. 2 Bona Dea International Hospital,49.930586941213974,40.41265673368778,407,Nizami rayonu,51574
1709,Nizami r. M.Abbasov küç. 2 Bona Dea International Hospital-Təcili Tibbi Yardım,49.930586941213974,40.41265673368778,407,Nizami rayonu,14046
1089,Nizami r. M.Abbasov küç. 43 m. 23 Nuray market,49.93942514260975,40.40882284856988,407,Nizami rayonu,1687
2503,Nizami r. M.Abbasov küç. 4C Araz Supermarket,49.93397401221736,40.412610765179416,407,Nizami rayonu,50112
806,Nizami r. M.Gəncəvi küç. 69 Araz Express ,49.93833354492456,40.40634662250369,407,Nizami rayonu,1227
2235,Nizami r. M.Şərifli 74 C Grandmart,49.940691032519105,40.421088302719276,407,Nizami rayonu,21066
1535,Nizami r. M.Şərifli küç. 1B Ayla market,49.92727237014523,40.42353409704214,407,Nizami rayonu,11069
2855,Nizami r. M.Şərifli küç. 25 Araz Supermarket (Neftçilər filialı),49.949427901715545,40.41326713471155,407,Nizami rayonu,51167
2605,Nizami r. M.Şərifli küç. 25 Araz Supermarket (Neftçilər filialı),49.949427901715545,40.41326713471155,407,Nizami rayonu,50215
2506,Nizami r. M.Şərifli küç. 25 Araz Supermarket (Neftçilər filialı),49.949427901715545,40.41326713471155,407,Nizami rayonu,50115
1624,Nizami r. M.Şərifli küç. ev. bina 25 korpus. 7 AL market,49.949023,40.4145614,407,Nizami rayonu,13023
1601,Nizami r. Naxçıvanski küç. 55 Sizin market (çöl) ,49.951345,40.406484,407,Nizami rayonu,12067
1493,Nizami r. Naxçıvanski küç. 66A Araz Supermarket  ,49.955235,40.40538,407,Nizami rayonu,11026
1361,Nizami r. Neftçilər Metro Stansiyası giriş,49.9433443,40.4101307,407,Nizami rayonu,2294
3103,Nizami r. Neftçilər Metro Stansiyası giriş,49.9434196,40.410201,407,Nizami rayonu,51416
3173,Nizami r. Nəsimi küç. 189 Rahat Supermarket,49.94219843301623,40.4141207032222,407,Nizami rayonu,51486
1873,Nizami r. Nəsimi küç. ev 32 Həyat market,49.9442986,40.414574,407,Nizami rayonu,16022
363,Nizami r. Özbəkistan küç. Araz market,49.927112670379685,40.415825867018754,407,Nizami rayonu,563
21,Nizami r. Q.Qarayev-B.Nuriyev küç. kəsişməsi Laçın Ticarət Mərkəzi (1-ci giriş),49.95135193439876,40.39969387155614,407,Nizami rayonu,22
1520,Nizami r. Q.Qarayev küç. 34/67 Optimal Elektronika (london),49.935675297972004,40.41694398361659,407,Nizami rayonu,11053
3218,Nizami r. Q.Qarayev Metro Stansiyası giriş,49.9329945,40.4178525,407,Nizami rayonu,51531
3250,Nizami r. Q.Qarayev pr. 114 Bravo Express,49.9499979,40.4000886,407,Nizami rayonu,51564
436,Nizami r. Q.Qarayev pr. 119 m. 25 OBA Xalqlar-3 market,49.9529878531374,40.397879663167956,407,Nizami rayonu,637
1913,Nizami r. Q.Qarayev pr. 124 Xalqlar Dostluğu m/s-nın yanı Bazarstore,49.951969204247845,40.397440065815665,407,Nizami rayonu,16062
2441,Nizami r. Q.Qarayev pr.126 Bolmart,49.9523687,40.3962766,407,Nizami rayonu,50050
1431,Nizami r. Q.Qarayev pr. 25A Araz Express (london),49.9327396216857,40.41818308892828,407,Nizami rayonu,10026
132,Nizami r. Q.Qarayev pr. 28 Asan Kommunal ,49.93539143934073,40.417902456655696,407,Nizami rayonu,206
2403,Nizami r. Q.Qarayev pr. 29 Bazarstore,49.934761405997406,40.41811089142331,407,Nizami rayonu,50011
3104,Nizami r. Q.Qarayev pr. 29 Bazarstore,49.934987102362626,40.418401124974956,407,Nizami rayonu,51417
163,Nizami r. Q.Qarayev pr. 34/67 Rahat Supermarket,49.93542039806427,40.41696253627768,407,Nizami rayonu,246
161,Nizami r. Q.Qarayev pr. 39 Rahat Supermarket,49.93920592431904,40.41608803482329,407,Nizami rayonu,244
1455,Nizami r. Q.Qarayev pr. 61C Belaruski (london),49.9432148,40.4116635,407,Nizami rayonu,10053
3166,Nizami r. Q.Qarayev pr. 62 Rahat Supermarket (london),49.94156444368075,40.411603122800585,407,Nizami rayonu,51479
3158,Nizami r. Q.Qarayev pr. 62 Rahat Supermarket (london),49.94156444368075,40.411603122800585,407,Nizami rayonu,51471
2634,Nizami r. Q.Qarayev pr. 74 Rahat Supermarket,49.94319258045845,40.409349669315645,407,Nizami rayonu,50244
2600,Nizami r. Q.Qarayev pr. 7A  Ruslan 93 market ,49.92503294191651,40.41973871751587,407,Nizami rayonu,50210
61,Nizami r. Q.Qarayev pr. 81Q Lotos T/M,49.94731582342322,40.405162527175726,407,Nizami rayonu,63
3074,Nizami r. Q.Qarayev pr. 93L Araz Supermarket,49.95059107049826,40.402543882698005,407,Nizami rayonu,51387
2505,Nizami r. Q.Qarayev pr. 93L Araz Supermarket,49.95059107049826,40.402543882698005,407,Nizami rayonu,50114
2267,Nizami r. Q.Qarayev pr. 94 Qalib market,49.94585610139503,40.40840368869667,407,Nizami rayonu,21098
3277,Nizami r. Q.Qarayev pr. ev 46 Bolmart ,49.9397545471275,40.414242031254076,407,Nizami rayonu,51591
364,Nizami r. Q.Qarayev pr. Ə.Vəliyev küç. Araz Supermarket (Qarayev 2 filialı),49.92526215543524,40.41959783783132,407,Nizami rayonu,564
2514,Nizami r. Q.Qarayev pr. İ.Əliyev küç. T.Abbasov küç və Özbəkistan küç-in kəs. 2451-ci məhəllə Bazarstore,49.9291072,40.420025,407,Nizami rayonu,50123
2010,Nizami r. Q.Qarayev pr. Maqnit mağazasının qarşısı dayanacaq (çöl kartomat) ,49.9442179,40.4093643,407,Nizami rayonu,18030
2776,Nizami r. Q.Qarayev pr. Nəsimi küç. 214 Bravo Express,49.944856,40.414675,407,Nizami rayonu,51087
2114,Nizami r. Q.Qarayev pr. Q.Qarayev metrosu Dadlı dönərin yanı dayanacaq (çöl kartomat) ,49.935682,40.417442,407,Nizami rayonu,19060
18,Nizami r. R.Rüstəmov küç. 17 OBA Neftçilər-6 market,49.938494630723106,40.4084300247046,407,Nizami rayonu,19
1067,Nizami r. R.Rüstəmov küç.27 Telefon mağazası,49.941902,40.4096588,407,Nizami rayonu,1665
2353,Nizami r. R.Rüstəmov küç. 72A Park City yaşayış kompleksi. Bravo Express,49.950316,40.410357,407,Nizami rayonu,22066
2925,Nizami r. R.Rüstəmov küç. ev 35 Bizim market ,49.944661,40.411215,407,Nizami rayonu,51237
3170,Nizami r. T.Abbasov küç. 58 Araz Supermarket,49.93570713479337,40.41889473205085,407,Nizami rayonu,51483
1518,Nizami r. Xalqlar Dostluğu Metro Stansiyası giriş,49.9528687,40.3967681,407,Nizami rayonu,11051
1209,Nizami r. Xalqlar Dostluğu Metro Stansiyası giriş ,49.9528687,40.3967681,407,Nizami rayonu,1896
634,Nizami r. Xalqlar Dostluğu Metro Stansiyası giriş (Laçın T/M tərəf) ,49.9518842,40.3983361,407,Nizami rayonu,1022
2128,Nizami r. Xalqlar Dostluğu metrosu Ağ Çiçəyim qarşısı dayanacaq (çöl kartomat),49.952749,40.3975401,407,Nizami rayonu,19074
1576,Nizami r. Y.Səfərov ev 22. AL market (çöl),49.918998046486195,40.393826855007724,407,Nizami rayonu,12040
2062,Nizami r. Z.Bünyadov pr. 20 Yanvar istiqaməti piyada keçidi dayanacaq (çöl kartomat),49.9060059,40.4257324,407,Nizami rayonu,19007
2139,Nizami r. Z.Bünyadov pr. Hyundai Otoplaza-nın qarşısı dayanacaq (çöl kartomat),49.89986918444324,40.42740411237525,407,Nizami rayonu,20006
2004,Nizami r. Z.Bünyadov pr. Koroğlu metrosu istiqaməti piyada keçidi dayanacaq (çöl kartomat),49.875535,40.4236118,407,Nizami rayonu,18024
1316,Qaradağ r. Binə T/M A Topdan Satış Mərkəzi,49.76049,40.302887,406,Qaradağ rayonu,2247
1081,Qaradağ r. Dəmiryolçular ev 46 Rəşad market,49.464564498404,40.16755747791165,406,Qaradağ rayonu,1679
2071,Qaradağ r. Ələt qəs. Nizami küç. 2A Coşqun market (çöl kartomat),49.40815680990081,39.954520237555215,406,Qaradağ rayonu,19016
1870,Qaradağ r. Ələt qəs. OBA Ələt-2 market,49.401466,39.947864,406,Qaradağ rayonu,16019
855,Qaradağ r. Ələt ŞTQ. Ticarət cərgəsi Telman market ,49.404669,39.956069,406,Qaradağ rayonu,1279
568,Qaradağ r. Lökbatan qəs. 15/94-cü məh. Orxan ərzaq dükanı,49.7456024148502,40.32717144083724,406,Qaradağ rayonu,917
2395,Qaradag r. Lökbatan qəs. 28 May küç. 26A və 26B Kingsmart 1,49.7344525,40.3215428,406,Qaradağ rayonu,50003
2406,Qaradag r. Lökbatan qəs. 28 May küç. 26A və 26B Kingsmart 1,49.7344525,40.3215428,406,Qaradağ rayonu,50014
2486,Qaradağ r. Lökbatan qəs. 28 May küç. 5H Bravo Superstore,49.73258128416207,40.322741189344235,406,Qaradağ rayonu,50095
619,Qaradağ r. Lökbatan qəs. 28 May küç. 5H Bravo Superstore,49.73258128416207,40.322741189344235,406,Qaradağ rayonu,1007
329,Qaradağ r. Lökbatan qəs. 28 May küç. OBA Lökbatan-7 market,49.7300051,40.321826,406,Qaradağ rayonu,528
2016,Qaradağ r. Lökbatan qəs. Binə T/M 5-ci sıra (çöl kartomat),49.755395,40.303505,406,Qaradağ rayonu,18036
1990,Qaradağ r. Lökbatan qəs. Binə T/M (çöl kartomat),49.755603,40.30323,406,Qaradağ rayonu,18009
57,Qaradağ r. Lökbatan qəs. B.Niftəliyev küç. 15/96 Yusif market,49.74693522930759,40.33157100158485,406,Qaradağ rayonu,59
3263,Qaradağ r. Lökbatan qəs. İ.Nəbiyev küç. 41C Kingsmart 2,49.7415756,40.3258227,406,Qaradağ rayonu,51577
2481,Qaradağ r. Lökbatan qəs. İ.Nəbiyev küç. 41C Kingsmart 2,49.7415756,40.3258227,406,Qaradağ rayonu,50090
2540,Qaradağ r. Lökbatan qəs. İ.Nəbiyev küç. Əli market,49.74101,40.322189,406,Qaradağ rayonu,50149
746,Qaradağ r. Lökbatan qəs. Nizami küç. 23 Araz Z market,49.728891872129275,40.32808924756675,406,Qaradağ rayonu,1147
1008,Qaradağ r. Lökbatan qəs. Nizami küç. 5A Market,49.72977234064423,40.32611071752349,406,Qaradağ rayonu,1603
1550,Qaradağ r. Lökbatan qəs. Qobu Park-2 Y/K Grandmart Express,49.751029866585334,40.34687421559536,406,Qaradağ rayonu,12012
1515,Qaradağ r. Lökbatan qəs. Qobu Park-3 Y/K Grandmart Express,49.751329,40.343276,406,Qaradağ rayonu,11048
3175,Qaradağ r. Lökbatan qəs. Sədərək T/M (Elitin içi),49.7806161478655,40.32609338459563,406,Qaradağ rayonu,51488
3156,Qaradağ r. Lökbatan qəs. Sədərək T/M (Elitin içi),49.78065276763278,40.32619039949104,406,Qaradağ rayonu,51469
505,Qaradağ r. Lökbatan qəs. S.Orucov küç. Lökbatan Residence Y/K (çöl),49.727137,40.328603,406,Qaradağ rayonu,710
2969,Qaradağ r. Lökbatan qəs. Xocəsən yolu 57. Rahat Supermarket,49.78372,40.33774,406,Qaradağ rayonu,51281
2340,Qaradağ r. Lökbatan ŞTQ. Lökbatan yolu ev 22A Aqrovest T/M,49.74772322264758,40.30855259906141,406,Qaradağ rayonu,22053
2464,Qaradağ r. Lökbatan ŞTQ. S.Orucov küç. Elmar market,49.72687908290989,40.3266863689954,406,Qaradağ rayonu,50073
968,Qaradağ r. Müsfiqabad qəs. OBA market,49.6302228,40.4650524,406,Qaradağ rayonu,1522
1529,Qaradağ r. Müsfiqabad qəs. Ticarət cərgəsi. Bayram market,49.6229462,40.4673211,406,Qaradağ rayonu,11063
1753,Qaradağ r. Müşviqabad qəs. A məh. Tur market,49.620608,40.468122,406,Qaradağ rayonu,15013
642,Qaradağ r. Müşviqabad qəs. bina 5Q-nin həyəti Elgün market ,49.625933,40.465271,406,Qaradağ rayonu,1030
2970,Qaradağ r. Müşviqabad qəs. İkinci küç. 2C Rahat Supermarket ,49.629682,40.46396,406,Qaradağ rayonu,51282
1157,Qaradağ r. Müşviqabad qəs. Qaçqınlar şəhərciyi Nuray market  ,49.612771,40.470258,406,Qaradağ rayonu,1844
1513,Qaradağ r. Müşviqabad qəs. Qaçqınlar şəhərciyi Tur market (azərişıq smartkart),49.612553,40.472998,406,Qaradağ rayonu,11046
1489,Qaradağ r. Müşviqabad qəs. Ticarət cərgəsi Seymur market (çöl),49.621326,40.467872,406,Qaradağ rayonu,11021
701,Qaradağ r. Müşviqabad qəs. Ticarət cərgəsi Şok market ,49.624238,40.466949,406,Qaradağ rayonu,1101
2334,Qaradağ r. Müşviqabad qəs. Ticarət cərgəsi Tur market ,49.620262,40.468127,406,Qaradağ rayonu,22046
2325,Qaradağ r. Puta qəs. OBA Puta-2 market,49.660498,40.295877,406,Qaradağ rayonu,22037
587,Qaradağ r. Qobu Park Yaşayış Kompleksi Qardaşlar market,49.74864007640526,40.346891567481876,406,Qaradağ rayonu,937
104,Qaradağ r. Qobustan qəs. 2-ci massiv Elşən market,49.41663140601061,40.09801770795348,406,Qaradağ rayonu,112
1665,Qaradağ r. Qobustan qəs. H.Niftəliyev küç. Arzu market ,49.412124,40.076309,406,Qaradağ rayonu,14002
2070,Qaradağ r. Qobustan qəs. Salyan şos. Buta market (çöl kartomat),49.41122112748819,40.07704806181541,406,Qaradağ rayonu,19015
2069,Qaradağ r. Qobustan qəs. Salyan şos. Buta market (çöl kartomat),49.41122112748819,40.07704806181541,406,Qaradağ rayonu,19014
1312,Qaradağ r. Qobustan qəs. SOCAR Təlim Mərkəzinin yanı Nicat market ,49.41610381729148,40.058643579298476,406,Qaradağ rayonu,2243
1019,Qaradağ r. Qobustan ŞTQ. Bakı-Ələt yolu 58-ci km. Araz Supermarket,49.411675,40.072373,406,Qaradağ rayonu,1615
1715,Qaradağ r. Sahil qəs. E.Quliyev küç. 42B Primorsk market (london),49.576946,40.222656,406,Qaradağ rayonu,14052
3087,Qaradağ r. Sahil qəs. M.Seyidov küç. Araz Supermarket  ,49.571947787202056,40.225108359416836,406,Qaradağ rayonu,51400
3266,Qaradağ r. Sahil qəs. M.Seyidov küç. Sahil T/M Optimal market,49.57598703847612,40.2270367728642,406,Qaradağ rayonu,51580
3204,Qaradağ r. Sahil qəs. M.Seyidov küç. Sahil T/M Optimal market,49.57598703847612,40.2270367728642,406,Qaradağ rayonu,51517
1479,Qaradağ r. Sahil qəs. M.Seyidov küç. Sahil T/M Optimal market ,49.57598703847612,40.2270367728642,406,Qaradağ rayonu,11010
1468,Qaradağ r. Sahil qəs. Tural Palace-in qarşısı Rifah supermarket ,49.582196573267254,40.226136577596314,406,Qaradağ rayonu,10066
1978,Qaradağ r. Salyan şos. 14-cü km. Bakı Baş Gömrük İdarəsi,49.77103135910556,40.30373614485414,406,Qaradağ rayonu,17043
2320,Qaradağ r. Salyan şos. 14-cü km. Bakı Baş Gömrük İdarəsi,49.77103135910556,40.30373614485414,406,Qaradağ rayonu,22032
2018,"Qaradağ r. Salyan şos. 14-cü km. Gömrük terminalı (çöl kartomat)
",49.7720499,40.3039611,406,Qaradağ rayonu,18038
2278,Qaradağ r. Salyan şos. 25-ci km. Qaradağ market,49.58786583602056,40.236245355623495,406,Qaradağ rayonu,21109
2833,Qaradağ r. Salyan şos. 25-ci km. Qaradağ market,49.58786583602056,40.236245355623495,406,Qaradağ rayonu,51145
326,Qaradağ r. Salyan şos. 83 H.Əliyev adına Dərin Özüllər Zavodu (Əsas İnzibati bina),49.65072240546102,40.259920820477845,406,Qaradağ rayonu,525
1954,Qaradağ r. Salyan şos. 83 H.Əliyev adına Dərin Özüllər Zavodu (NBM-1),49.65072240546102,40.259920820477845,406,Qaradağ rayonu,17017
585,Qaradağ r. Salyan şos. 83 H.Əliyev adına Dərin Özüllər Zavodu (TQ-1),49.65072240546102,40.259920820477845,406,Qaradağ rayonu,935
1676,Qaradağ r. Ümid qəs. Yeni massiv 2 Cənub market,49.516302948431196,40.20287994348486,406,Qaradağ rayonu,14013
2283,Qaradağ r. Ümüd qəs. ev Ümüd 500 Ərzaq mağazası,49.508617,40.199136,406,Qaradağ rayonu,21114
2986,Sabunçu r. A.Məmmədəliyev küç. Araz Superstore,49.943248480820166,40.44522652850059,395,Sabunçu rayonu,51298
2987,Sabunçu r. A.Məmmədəliyev küç. Araz Superstore ,49.943248480820166,40.44522652850059,395,Sabunçu rayonu,51299
1563,Sabunçu r. Azərbaycan qadını küç. döngə 5 ev 3 Emin market,50.04287526853478,40.565224750550136,395,Sabunçu rayonu,12025
608,Sabunçu r. Bakıxanov qəs. Alıyev küç. ev 1A AL market,49.971194200837445,40.40684982095868,395,Sabunçu rayonu,958
721,Sabunçu r. Bakıxanov qəs. B.Bünyadov 27 B Fərid market,49.95247273445424,40.43154663458346,395,Sabunçu rayonu,1122
2482,Sabunçu r. Bakıxanov qəs. B.Bünyadov küç. 134 Grandmart,49.939343593555776,40.427332252397406,395,Sabunçu rayonu,50091
2194,Sabunçu r. Bakıxanov qəs. B.Bünyadov küç. 7A Zəhra market,49.94712821109774,40.430375969151335,395,Sabunçu rayonu,21023
902,Sabunçu r. Bakıxanov qəs. Ə.Kərim küç. 157A Grandmart Supermarket,49.9572807,40.4217131,395,Sabunçu rayonu,1416
1562,Sabunçu r. Bakıxanov qəs. Ə.Kərim küç. 219 Market 24/7,49.962323,40.423629,395,Sabunçu rayonu,12024
139,Sabunçu r. Bakıxanov qəs. Gənclər küç. 27C Rahat market,49.96869330984433,40.41079217992248,395,Sabunçu rayonu,217
3161,Sabunçu r. Bakıxanov qəs. Gənclər küç. 27C Rahat market,49.96869330984433,40.41079217992248,395,Sabunçu rayonu,51474
150,Sabunçu r. Bakıxanov qəs. Gənclər küç. 27C Rahat market,49.96869330984433,40.41079217992248,395,Sabunçu rayonu,229
1788,Sabunçu r. Bakıxanov qəs. Gənclik küç. 29 Aygün City T/M Bazarstore,49.96430307685606,40.41776776250529,395,Sabunçu rayonu,15049
2763,Sabunçu r. Bakıxanov qəs. Gənclik küç. 29 Aygün City T/M Bazarstore,49.96430307685606,40.41776776250529,395,Sabunçu rayonu,51074
1992,Sabunçu r. Bakıxanov qəs. Gənclik küç. OBA Bakıxanov-13 market (çöl kartomat),49.96919330255335,40.410058795672654,395,Sabunçu rayonu,18011
1898,Sabunçu r. Bakıxanov qəs. M.Əmirov küç. 26 AL market,49.96431659861634,40.411618275745816,395,Sabunçu rayonu,16047
2766,Sabunçu r. Bakıxanov qəs M.Fətəliyev 197 Megastore,49.96593528740135,40.41842770094725,395,Sabunçu rayonu,51077
766,Sabunçu r. Bakıxanov qəs. M.Fətəliyev 72 Araz market (london),49.96852488178207,40.41467561898054,395,Sabunçu rayonu,1167
2007,Sabunçu r. Bakıxanov qəs. M.Fətəliyev küç. 55 Dəbli Libas (çöl kartomat),49.967498,40.417015,395,Sabunçu rayonu,18027
2771,Sabunçu r. Bakıxanov qəs. M.Fətəliyev pr. 53 Araz Supermarket,49.968220412938955,40.41624545936384,395,Sabunçu rayonu,51082
1668,Sabunçu r. Bakıxanov qəs. M.Fətəliyev pr. 53 Araz Supermarket,49.968220412938955,40.41624545936384,395,Sabunçu rayonu,14005
2322,Sabunçu r. Bakıxanov qəs. M.Gəncəvi küç. 19 Haldun Araz market ,49.955792,40.424691,395,Sabunçu rayonu,22034
1175,Sabunçu r. Bakıxanov qəs. Neftçilər küç. 83 Bəhram market,49.97172063621006,40.41958801261436,395,Sabunçu rayonu,1862
1981,Sabunçu r. Bakıxanov qəs. Neftçilər küç. 83 Bəhram market,49.97172063621006,40.41958801261436,395,Sabunçu rayonu,17046
2419,Sabunçu r. Bakıxanov qəs. Neftçilər küç. və Sülh küç. kəs. A Plus market,49.9700343,40.421613,395,Sabunçu rayonu,50027
397,Sabunçu r. Bakıxanov qəs. N. İsmayılov küç. 59 Araz minimarket,49.9687404693067,40.42374536805196,395,Sabunçu rayonu,597
511,Sabunçu r. Bakıxanov qəs. N.İsmayılov küç. Möcüzə market (çöl),49.9570911,40.4307909,395,Sabunçu rayonu,716
496,Sabunçu r. Bakıxanov qəs. N.İsmayılov küç. Möcüzə market (çöl),49.9570911,40.4307909,395,Sabunçu rayonu,700
498,Sabunçu r. Bakıxanov qəs. N.İsmayılov küç. Möcüzə market (çöl),49.9570911,40.4307909,395,Sabunçu rayonu,702
520,Sabunçu r. Bakıxanov qəs. N.İsmayılov küç. Möcüzə market (çöl),49.9570911,40.4307909,395,Sabunçu rayonu,728
1567,Sabunçu r. Bakıxanov qəs. N.İsmayılov küç. Möcüzə market (çöl),49.9570911,40.4307909,395,Sabunçu rayonu,12030
1642,Sabunçu r. Bakıxanov qəs. N.İsmayılov küç. Möcüzə market (çöl),49.9570911,40.4307909,395,Sabunçu rayonu,13042
877,Sabunçu r. Bakıxanov qəs. N.İsmayılov küç. Portal market ,49.962199906182924,40.42861053106676,395,Sabunçu rayonu,1301
461,Sabunçu r. Bakıxanov qəs. O.Əfəndiyev küç. ev 3 İL mart,49.9540183,40.423531,395,Sabunçu rayonu,662
352,Sabunçu r. Bakıxanov qəs. R.Axundov küç. 43-44 Araz Life market,49.963646612576134,40.416085088649865,395,Sabunçu rayonu,551
2772,Sabunçu r. Bakıxanov qəs. R.Qəmbərov küç. 2566-cı məh. Bravo Superstore,49.95412461749185,40.41248401224092,395,Sabunçu rayonu,51083
332,Sabunçu r. Bakıxanov qəs. R.Qəmbərov küç. 2566-cı məh. Bravo Superstore,49.95412461749185,40.41248401224092,395,Sabunçu rayonu,531
1648,Sabunçu r. Bakıxanov qəs. R.Qəmbərov küç. Gül market (çöl),49.95933719347418,40.413339806012075,395,Sabunçu rayonu,13048
2764,Sabunçu r. Bakıxanov qəs. S.Cabbarov küç. 2B Bravo Express,49.96689443934306,40.41739414332514,395,Sabunçu rayonu,51075
2407,Sabunçu r. Bakıxanov qəs. S.Mehmandarov küç. 28 Bazarstore ,49.9594392816511,40.42443455097788,395,Sabunçu rayonu,50015
2926,Sabunçu r. Bakıxanov qəs. S.Qocayev küç. ev 23 Bizim market,49.96612,40.415382,395,Sabunçu rayonu,51238
2774,Sabunçu r. Bakıxanov qəs. S.Qocayev küç. ev. 35 Araz Supermarket,49.965272338734614,40.41576174767511,395,Sabunçu rayonu,51085
73,Sabunçu r. Bakıxanov qəs. Sülh küç. 197 4 saylı Asan Xidmət Mərkəzi,49.969073,40.421194,395,Sabunçu rayonu,76
1660,Sabunçu r. Bakıxanov qəs. Sülh küç. 2V Araz Mehrac market (çöl) ,49.959107,40.416213,395,Sabunçu rayonu,13061
2079,Sabunçu r. Bakıxanov qəs. Sülh küç. Aptek (çöl kartomat),49.96292563277849,40.41840929146076,395,Sabunçu rayonu,19024
173,Sabunçu r. Bakıxanov qəs. Y.Əliyev küç. 26C Stimul Hospital,49.95650488925432,40.43371207472784,395,Sabunçu rayonu,258
1667,Sabunçu r. Bakıxanov qəs. Y.Əliyev küç. 26S Səhram market,49.95986994290399,40.436980134529776,395,Sabunçu rayonu,14004
2382,Sabunçu r. Bakıxanov qəs. Y.Əliyev küç. 26S Səhram market ,49.95986994290399,40.436980134529776,395,Sabunçu rayonu,22095
1547,Sabunçu r. Bakıxanov qəs. Y.Əliyev küç. 26S Səhram market (divar arası),49.95986994290399,40.436980134529776,395,Sabunçu rayonu,12009
1740,Sabunçu r. Bakıxanov qəs. Y.Əliyev küç. 70 Firuzə market ,49.948001743661074,40.41720212467842,395,Sabunçu rayonu,14078
783,Sabunçu r. Bakıxanov qəs. Y.Əliyev küç. Bakıxanov Mall Bravo Supermarket,49.954408,40.431819,395,Sabunçu rayonu,1203
2026,Sabunçu r. Bakıxanov qəs. Y.Əliyev küç. Cehizlik mağaza (çöl kartomat),49.960762619243425,40.422647161803226,395,Sabunçu rayonu,18046
374,Sabunçu r. Bakıxanov ŞTQ. Hacınski küç. ev.1 Akay market,49.967506,40.4229327,395,Sabunçu rayonu,574
1708,Sabunçu r. Balaxanı qəs. 2-ci mədən Market,49.93147339352268,40.45054134481002,395,Sabunçu rayonu,14045
2292,Sabunçu r. Balaxanı qəs. H.Əliyev küç. Nihad market,49.91148849230694,40.479839525411855,395,Sabunçu rayonu,22003
657,Sabunçu r. Balaxanı qəs. P.H.Hüseynov küç. 6 Şükür Market,49.921235,40.473757,395,Sabunçu rayonu,1045
1663,Sabunçu r. Balaxanı qəs. Sabunçu 2 U.B.Pirməmməd küç. Murad market,49.91939,40.473302,395,Sabunçu rayonu,14000
874,Sabunçu r. Balaxanı qəs. Səfəvilər küç. ev 2. Şirin market (london) ,49.921141,40.458796,395,Sabunçu rayonu,1298
366,Sabunçu r. Balaxanı qəs. Şəfkət küç. ev 42 Yol market,49.92925965707586,40.46425057083503,395,Sabunçu rayonu,566
1249,Sabunçu r. Balaxanı qəs. S.Mansurov küç. 43 Dad market,49.925232939788124,40.47100140005265,395,Sabunçu rayonu,2027
140,Sabunçu r. Balaxanı qəs. S.Mənsurov küç. Bəhrəm market,49.92042885365939,40.46784116013354,395,Sabunçu rayonu,218
1150,Sabunçu r. Bilgəh qəs. Azərbaycan qadını küç. Market,50.0436598609857,40.565593511439225,395,Sabunçu rayonu,1837
990,Sabunçu r. Bilgəh qəs. Azərbaycan qadını küç. Təzə Bazar market,50.041081,40.564363,395,Sabunçu rayonu,1546
1352,Sabunçu r. Bilgəh qəs. H.Əliyev küç. AL market,50.0250207,40.5559298,395,Sabunçu rayonu,2284
75,Sabunçu r. Bilgəh qəs. Zaqulba şos. 272 Bilgah Estates Villa Resort,50.0619194,40.5876762,395,Sabunçu rayonu,79
1309,Sabunçu r. Ə.Əliyev küç. 210 Səhram market,49.934518373602565,40.43396770978214,395,Sabunçu rayonu,2240
1647,Sabunçu r. Gənclik pr. və R.Qəmbərov küç. kəsişməsi. Ucuzluq Univermaq (çöl),49.967718,40.412233,395,Sabunçu rayonu,13047
1313,Sabunçu r. Kürdaxanı qəs. Yeni Yaşayış massivi ev 0 m. 0 Zimmi market,49.8998129989387,40.54864914293805,395,Sabunçu rayonu,2244
247,Sabunçu r. Kürdəxanı qəs. Kürdəxanı Yeni Y/K Qarabağ market,49.94709228966021,40.52083538613722,395,Sabunçu rayonu,341
1133,Sabunçu r. Kürdəxanı qəs. M.Adil küç. AL market,49.919086,40.551941,395,Sabunçu rayonu,1820
1215,Sabunçu r. Kürdəxanı qəs. M.Adil küç. İL mart,49.91114449304273,40.547516130605175,395,Sabunçu rayonu,1902
871,Sabunçu r. Kürdəxanı ŞTQ. Araz minimarket,49.91157346189793,40.54751142284635,395,Sabunçu rayonu,1295
678,Sabunçu r. Maştağa-Buzovna yolu. Xanlar küç.39 TE market,50.021124,40.524221,395,Sabunçu rayonu,1066
843,Sabunçu r. Maştağa qəs. A.Heybətov küç. Grandmart,50.0044722,40.5312576,395,Sabunçu rayonu,1266
1737,Sabunçu r. Maştağa qəs. Gülçüluk sovxozu Market,49.99436,40.501757,395,Sabunçu rayonu,14074
2988,Sabunçu r. Maştağa qəs. H.Heybətov küç. 2 Real market,49.9967639,40.5261189,395,Sabunçu rayonu,51300
2229,Sabunçu r. Maştağa qəs. H.Heybətov küç. Baku Store,49.9978186,40.5283983,395,Sabunçu rayonu,21058
2020,Sabunçu r. Maştağa qəs. M.Hüseyn küç. 10 Maştağa Enerji Təchizatı və Satış Sahəsi (çöl kartomat),50.00580870084023,40.53182865368887,395,Sabunçu rayonu,18040
1095,Sabunçu r. Maştağa qəs. M.Şəfai küç. 43 24 saat market  ,50.0047412,40.5323254,395,Sabunçu rayonu,1693
1530,Sabunçu r. Maştağa qəs. Musalan küç. 38 Onur market,49.97942077538039,40.519911580182644,395,Sabunçu rayonu,11064
737,Sabunçu r. Maştağa qəs. Nizami küç. 18 Lyuks market ,49.99096443946124,40.53261276033019,395,Sabunçu rayonu,1138
1755,Sabunçu r. Maştağa qəs. Nizami küç. 30 Market,49.99121180339638,40.53247819084572,395,Sabunçu rayonu,15015
91,Sabunçu r. Maştağa qəs. S.İ.Ağa küç. Ocaq market,50.00435028358674,40.5337920353235,395,Sabunçu rayonu,96
328,Sabunçu r. Maştağa qəs. S.İ.Ağa küç. Savalan market ,50.004253,40.533859,395,Sabunçu rayonu,527
327,Sabunçu r. Maştağa qəs. Subtropik sovxoz 2-ci sahə Fuad market ,49.988193788451916,40.501155025097724,395,Sabunçu rayonu,526
1623,Sabunçu r. Maştağa qəs. Xanlar küç. 55 24 saat market,50.01111557705628,40.529201980124256,395,Sabunçu rayonu,13022
2984,Sabunçu r. Nardaran qəs. Bakı dairəvi yolu. Bravo Center,49.985224460857026,40.58738259017965,395,Sabunçu rayonu,51296
816,Sabunçu r. Nardaran qəs. Maştağa yolu Market ,49.9927181,40.5486292,395,Sabunçu rayonu,1237
1203,Sabunçu r. Nardaran qəs. Sea Breeze Resort (london),49.98526,40.5904076,395,Sabunçu rayonu,1890
2985,Sabunçu r. Nardaran ŞTQ. Ləhiş Bağları. ev.9Z. Araz Supermarket,50.022676550746006,40.55501529708623,395,Sabunçu rayonu,51297
3232,Sabunçu r. N.İsmayılov küç. 295A Araz minimarket ,49.972021,40.419091,395,Sabunçu rayonu,51546
3043,Sabunçu r. Pirşağı-Bilgəh şos. Ləhiş bağları. Rahat market,49.923406,40.561104,395,Sabunçu rayonu,51356
1962,Sabunçu r. Pirşağı qəs. A.Əlizadə küç. Hacı market,49.885154078286554,40.55681611274265,395,Sabunçu rayonu,17025
1283,Sabunçu r. Pirşağı qəs. E.Malikov küç. ev 29 Xəzri market,49.88775615317328,40.5580325618326,395,Sabunçu rayonu,2213
1799,Sabunçu r. Pirşağı qəs. H.Əliyev küç. AL market,49.8840116546565,40.558393034830814,395,Sabunçu rayonu,15060
1011,Sabunçu r. Pirşağı qəs. H.Əliyev küç. Pirşağı market,49.88603552449023,40.55673606383843,395,Sabunçu rayonu,1606
1955,Sabunçu r. Pirsağı qəs. Mehdiabad-Pirşağı şossesi 2 nömrəli sovxoz Xəzri market,49.870964913828864,40.528563283316394,395,Sabunçu rayonu,17018
68,Sabunçu r. Pirşağı qəs. Mehdiabad-Pirşağı şos. Yeni yaşayış massivi Market ,49.8776472136547,40.54034187324459,395,Sabunçu rayonu,70
2245,Sabunçu r. Ramana qəs. 2-ci sahə Qardaşlar Araz market ,50.017801,40.47513,395,Sabunçu rayonu,21076
193,Sabunçu r. Ramana qəs. E.Mehdiyev 1 Rahat supermarket,49.974431031935374,40.50243599127679,395,Sabunçu rayonu,283
2390,Sabunçu r. Ramana qəs. E.Məhərrəmov küç. OBA market,49.98312548730935,40.4896596139428,395,Sabunçu rayonu,22103
1267,Sabunçu r. Ramana qəs. Qala-Ramana yolu Sahə 2 AL market,49.98890131464682,40.45299381082792,395,Sabunçu rayonu,2046
1958,Sabunçu r. Ramana qəs. SNQ market,49.96480080113918,40.44415906018257,395,Sabunçu rayonu,17021
2275,Sabunçu r. Ramana qəs. Südçüluk sovxozu AL market ,49.9780233635034,40.48583603005451,395,Sabunçu rayonu,21106
1679,Sabunçu r. Ramana qəs. Südçülük sovxozu. Araz minimarket ,49.987909,40.47768,395,Sabunçu rayonu,14016
2276,Sabunçu r. Ramana qəs. Südçülük sovxozu E. Suleymanlı küç. 1A AL market,49.98341753126037,40.47903396761786,395,Sabunçu rayonu,21107
1661,Sabunçu r. Ramana qəs. Südçülük sovxozu Pətək supermarket (çöl),49.9864123,40.4806693,395,Sabunçu rayonu,13062
767,Sabunçu r. Ramana qəs. Südçülük sovxozu. Sosial binalar. Grandmart Yurdum,49.995135,40.481117,395,Sabunçu rayonu,1168
1373,Sabunçu r. Ramana qəs. Şuşa şəhərciyi Pətək market  ,50.014833033143006,40.4687582405966,395,Sabunçu rayonu,2306
1519,Sabunçu r. Ramana qəs. V.Vəliyev küç. 40 Ramana market,49.9832235,40.4573072,395,Sabunçu rayonu,11052
1139,Sabunçu r. Ramana qəs. Yeni Ramana qəs. 10. A Plus market (london),49.98015,40.441013,395,Sabunçu rayonu,1826
1384,Sabunçu r. Ramana südçülük savxozu Zəfər 44 supermarket,50.014885,40.468975,395,Sabunçu rayonu,4108
2581,Sabunçu r. Sabunçu Dəmiryol stansiyası Bravo Express,49.946221815578,40.44611523358374,395,Sabunçu rayonu,50190
2112,Sabunçu r. Sabunçu piyada keçidi. Döngə 5. Ucuz market (çöl kartomat),49.933955905977676,40.441947559314556,395,Sabunçu rayonu,19058
38,Sabunçu r. Sabunçu qəs. Ə.Məmmədəliyev küç. ev 12A AL market ,49.94379662160765,40.44453821387379,395,Sabunçu rayonu,40
771,Sabunçu r. Sabunçu qəs. M.Aydınbəyov küç. 13 Seymur market ,49.9577508352951,40.4404090594015,395,Sabunçu rayonu,1172
2198,Sabunçu r. Sabunçu qəs. Natəvan küç. 33 155 N-li məktəbin qarşısı Göyçə market ,49.95449042957216,40.44697049374929,395,Sabunçu rayonu,21027
2989,Sabunçu r. Sabunçu qəs. Seyid Hüseyn küç. 1 Bravo Express,49.94280364552333,40.44298134271847,395,Sabunçu rayonu,51301
611,Sabunçu r. Sabunçu qəs. Şəhər şos. döngə 5 ev 2 Market,49.931551,40.445103,395,Sabunçu rayonu,962
3231,Sabunçu r. Sabunçu ŞTQ. Y.Əliyev k. ev.12. m.F  Rahat Supermarket,49.958629,40.436344,395,Sabunçu rayonu,51545
2990,Sabunçu r. Savalan qəs. Maştağa-Zabrat yolu Araz Supermarket (Savalan filialı),49.97553524050998,40.50668060271038,395,Sabunçu rayonu,51302
2331,Sabunçu r. Savalan yaşayış massivi Oba Market,49.968991,40.516512,395,Sabunçu rayonu,22043
2489,Sabunçu r. Şəhər pr. 18D Bolmart,49.934967815372325,40.44698089753591,395,Sabunçu rayonu,50098
2454,Sabunçu r. Şəhər pr. 18D Bolmart,49.934967815372325,40.44698089753591,395,Sabunçu rayonu,50063
1499,Sabunçu r. Sovxoz Ramana qəs. Zeytun Emalı müəssisəsi Bolluq market,49.9818094,40.4953273,395,Sabunçu rayonu,11032
1522,Sabunçu r. Yeni Ramana qəs. Şuşa şəhərciyi Orxan market ,50.01313789763462,40.48172267447956,395,Sabunçu rayonu,11055
2374,Sabunçu r. Zabrat 1 N.Nərimanov küç.2 AL market,49.9450243,40.4753632,395,Sabunçu rayonu,22087
2317,Sabunçu r. Zabrat 1 qəs. Kərpic zavod yolu M.V.Vidadi küç. AL market,49.92915838703216,40.483727666813905,395,Sabunçu rayonu,22029
2769,Sabunçu r. Zabrat 1 qəs. Neftçilər küç. 1 Araz Supermarket,49.93834041455353,40.47685771122242,395,Sabunçu rayonu,51080
2310,Sabunçu r. Zabrat 1 qəs. Neftçilər küç. Yenilik market ,49.93881089558727,40.47674974056605,395,Sabunçu rayonu,22022
562,Sabunçu r. Zabrat 1 qəs. Oktyabr küç. 41 Sənan market ,49.9522812,40.4756858,395,Sabunçu rayonu,911
1293,Sabunçu r. Zabrat 2 qəs. Seyid market,49.956514206674385,40.48863010158713,395,Sabunçu rayonu,2224
1693,Sabunçu r. Zabrat 2 qəs. Seyid market  ,49.956514206674385,40.48863010158713,395,Sabunçu rayonu,14030
732,Sabunçu r. Zabrat 2 qəs. Tramvay küç. AL market,49.96004023907606,40.47884985097708,395,Sabunçu rayonu,1133
1240,Sabunçu r. Zabrat qəs. Kərpic zavod yolu. Yeni məhəllə. Ülvi market ,49.940562,40.483301,395,Sabunçu rayonu,2018
2197,Sabunçu r. Zabrat qəs. Maştağa-Zabrat yolu. Kanal market,49.98271758711347,40.51546871137389,395,Sabunçu rayonu,21026
2431,Sabunçu r. Zabrat qəs. Montin küç. 21 Grandmart,49.95442564140623,40.49143281259927,395,Sabunçu rayonu,50039
2377,Sabunçu r. Zabrat qəs. R.Axundov küç Araz minimarket,49.94441033989467,40.472817059146784,395,Sabunçu rayonu,22090
2349,Sabunçu r. Zabrat qəs. R.Göyüşov küç. ev 5 AL market,49.94378827608467,40.49330838526001,395,Sabunçu rayonu,22062
185,Sabunçu r. Zabrat qəs. Sabuncu-Zabrat yolunun sağ tərəfi Rahat market,49.94476885816668,40.465869774170955,395,Sabunçu rayonu,274
3172,Sabunçu r. Zabrat qəs. Sabunçu-Zabrat yolunun sağ tərəfi Rahat market,49.94476885816668,40.465869774170955,395,Sabunçu rayonu,51485
192,Sabunçu r. Zabrat qəs. Zabrat dairəsi Bolmart,49.953046,40.491755,395,Sabunçu rayonu,281
1029,Sabunçu r. Zabrat qəs. Zabrat dairəsi Bolmart ,49.95299103950303,40.49173686296529,395,Sabunçu rayonu,1625
567,Suraxanı r. Alcanov küç. 17 Araz Supermarket (Qaraçuxur 1 filialı),49.978199,40.401526,412,Suraxanı rayonu,916
2181,Suraxanı r. Bülbülə qəs. 256 Mədən 3. AL market,49.997213,40.426675,412,Suraxanı rayonu,21010
236,Suraxanı r. Bülbülə qəs. L.Səlimov küç. 17. AL market,49.977636,40.433241,412,Suraxanı rayonu,329
2432,Suraxanı r. Bülbülə qəs. S.Bəhlulzadə küç. 85 Bizim market,49.983856,40.433512,412,Suraxanı rayonu,50040
2387,Suraxanı r. Bülbülə qəs. S.Bəlulzadə küç. 71 Bülbülə market,49.97842203864176,40.43522571713817,412,Suraxanı rayonu,22100
267,Suraxanı r. Bülbülə qəs. S.Əliyev küç. 199F. Nərmin store,50.00142,40.444864,412,Suraxanı rayonu,381
2088,Suraxanı r. Bülbülə qəs. T.Bayram küç. Atilla market (çöl),49.987145,40.430334,412,Suraxanı rayonu,19033
37,Suraxanı r. Dədə Qorqud qəs. Ballı market,50.024614,40.388973,412,Suraxanı rayonu,39
998,Suraxanı r. D yaşayış massivi 24-cü binanın yanı. MM market,49.97784146331813,40.37054848958392,412,Suraxanı rayonu,1554
2207,Suraxanı r. Ə.Mehbalıyev küç. AL market,49.97312109275623,40.40278498085624,412,Suraxanı rayonu,21036
1351,Suraxanı r. Əmircan qəs. 114-nömrəli məktəbin yanı. AL market,49.996133,40.41769,412,Suraxanı rayonu,2283
1022,Suraxanı r. Əmircan qəs. A.Rzayev küç. 70 Güllücə market,50.007058,40.417746,412,Suraxanı rayonu,1618
1626,Suraxanı r. Əmircan qəs. H.Z.Tağıyev küç. Ruzi market,49.995658,40.419731,412,Suraxanı rayonu,13025
645,Suraxanı r. Əmircan qəs. İ.Quliyev küç. Greenstore,49.98618,40.428801,412,Suraxanı rayonu,1033
1759,Suraxanı r. Əmircan qəs. Rəng emalı zavodunun qarşısı. Araz Aqil market,49.992825,40.408849,412,Suraxanı rayonu,15019
1355,Suraxanı r. Əmircan qəs. S.Bəhlulzadə küç. 24 Bazarstore,49.997611,40.421113,412,Suraxanı rayonu,2287
226,Suraxanı r. Əmircan qəs. T.Bayram küç. 25 Halal market,49.9875,40.4232,412,Suraxanı rayonu,319
442,Suraxanı r. Əmircan qəs. Z.Əliyev küç. 27 Araz market ,50.002478,40.412418,412,Suraxanı rayonu,643
2469,Suraxanı r. Günəşli qəs. AB massivi Ballı market,49.978067,40.376371,412,Suraxanı rayonu,50078
2041,Suraxanı r. Hövsan qəs. 13-cü Sahil küç. 20 Zoğal aptek (çöl kartomat),50.074585,40.360175,412,Suraxanı rayonu,18063
175,Suraxanı r. Hövsan qəs. Çöllük. ev 36A. AL market,50.059191,40.357902,412,Suraxanı rayonu,260
14,Suraxanı r. Hövsan qəs. E.Məmmədov küç.4 Nihat Market,50.075076,40.36082,412,Suraxanı rayonu,14
2447,Suraxanı r. Hövsan qəs. E.Məmmədov küç. ev. 5K m. Araz Supermarket,50.077821,40.36092,412,Suraxanı rayonu,50056
2444,Suraxanı r. Hövsan qəs. E.Məmmədov küç. ev. 5K m. Araz Supermarket,50.077821,40.36092,412,Suraxanı rayonu,50053
2780,Suraxanı r. Hövsan qəs. E.Qasımov küç. 15A Ballı market,50.0743611,40.3651806,412,Suraxanı rayonu,51091
3099,Suraxanı r. Hövsan qəs. E.Qasımov küç. 207/217 Araz Supermarket  ,50.072615,40.363833,412,Suraxanı rayonu,51412
1498,Suraxanı r. Hövsan qəs. E.Qasımov küç. 239B T-market,50.0717492760601,40.364690200875415,412,Suraxanı rayonu,11031
279,Suraxanı r. Hövsan qəs. F.Bayramov küç. 20 Toğrul market (çöl kartomat),50.075624,40.3579491,412,Suraxanı rayonu,406
338,Suraxanı r. Hövsan qəs. Hövsan Mida yaşayış kompleksi. Bazarstore ,50.072337,40.379783,412,Suraxanı rayonu,537
615,Suraxanı r. Hövsan qəs. İ.Əhlimanov küç. 10 Elnur market,50.080309,40.362925,412,Suraxanı rayonu,1003
1986,Suraxanı r. Hövsan qəs. İ.Əhlimanov küç. 157 Miss Mod (çöl kartomat) ,50.078063,40.36058,412,Suraxanı rayonu,18004
1259,Suraxanı r. Hövsan qəs. İ.Əhlimanov küç. 6 Zahidoğlu market,50.078784,40.360597,412,Suraxanı rayonu,2038
2824,Suraxanı r. Hövsan qəs. İ.Əhlimanov küç. Araz Supermarket,50.080077,40.360589,412,Suraxanı rayonu,51136
2091,Suraxanı r. Hövsan qəs. İ.Əhlimanov küç. Yaşıl market (çöl kartomat) ,50.0802412,40.3638966,412,Suraxanı rayonu,19036
1949,Suraxanı r. Hövsan qəs. Məktəbli küç. 100% Ballı Market,50.083388,40.378023,412,Suraxanı rayonu,17011
1792,Suraxanı r. Hövsan qəs. Məktəbli küç. 18A Buta market,50.085608,40.37428,412,Suraxanı rayonu,15053
1459,Suraxanı r. Hövsan qəs. Məktəbli küç. 32 Buta express market,50.086473,40.369558,412,Suraxanı rayonu,10057
1272,Suraxanı r. Hövsan qəs. Məktəbli küç. Araz Xaqan market,50.085043,40.375637,412,Suraxanı rayonu,2202
34,Suraxanı r. Hövsan qəs. Məktəbli küç. Oktay market,50.086693444288116,40.38127726147497,412,Suraxanı rayonu,36
1021,Suraxanı r. Hövsan qəs. O.Şabanov küç. 13 məh. Bizim market,50.065147,40.358403,412,Suraxanı rayonu,1617
920,Suraxanı r. Hövsan qəs. O.Şabanov küç. Araz Supermarket,50.067139,40.358777,412,Suraxanı rayonu,1434
2375,Suraxanı r. Hövsan qəs. Qum Adası. Gülay market,49.999924,40.347241,412,Suraxanı rayonu,22088
736,Suraxanı r. Hövsan qəs. Zeytun Sovxozu y/m. Sənan market,50.079335,40.38411,412,Suraxanı rayonu,1137
827,Suraxanı r. Hövsan yolu Qum Adası qəs. Araz Supermarket ,49.999621,40.347579,412,Suraxanı rayonu,1250
2827,Suraxanı r. İ.İsmayılov küç. 5C Bizim market,49.969491,40.363054,412,Suraxanı rayonu,51139
2485,Suraxanı r. İ.İsmayılov küç. 5C Bizim market,49.969491,40.363054,412,Suraxanı rayonu,50094
2640,Suraxanı r. İ.Musayev küç. 56D Araz Supermarket,49.971759,40.385011,412,Suraxanı rayonu,50250
2476,Suraxanı r. İ.Musayev küç. 56D Araz Supermarket,49.971759,40.385011,412,Suraxanı rayonu,50085
1408,Suraxanı r. Qaraçuxur qəs. Ə.Mehbalıyev küç. 46 Araz market,49.972654,40.404061,412,Suraxanı rayonu,10003
2028,Suraxanı r. Qaraçuxur qəs. Ə.Mehbalıyev küç. Greenstore (çöl kartomat),49.97297,40.399802,412,Suraxanı rayonu,18048
2594,Suraxanı r. Qaraçuxur qəs. məh 4057-4060. M.Fətəliyev küç 15C. Bazarstore,49.97647,40.399672,412,Suraxanı rayonu,50203
1617,Suraxanı r. Qaraçuxur qəs. Millimart,49.971488,40.392312,412,Suraxanı rayonu,13016
2184,Suraxanı r. Qaraçuxur qəs. N.İsmayılov küç. 69A Ordubad market,49.978869,40.406124,412,Suraxanı rayonu,21013
1288,Suraxanı r. Qaraçuxur qəs. R.Əlicanov küç. ev. 12. AL market,49.975987,40.401519,412,Suraxanı rayonu,2218
2271,Suraxanı r. Qaraçuxur qəs. Şərq-Şimal yaşayış massivi döngə 4 Maga store,49.983883,40.397633,412,Suraxanı rayonu,21102
133,Suraxanı r. Qaraçuxur qəs. ŞTQ məktəb ev 2/3. AL market,49.973587,40.395085,412,Suraxanı rayonu,209
788,Suraxanı r. Qaraçuxur qəs. Y.Eyvazov küç. 122/126 Arena Store,49.98394,40.398758,412,Suraxanı rayonu,1208
417,Suraxanı r. Qaraçuxur qəs. Y.Eyvazov küç. 193 Makros market,49.983513025929284,40.40062973912175,412,Suraxanı rayonu,618
2094,Suraxanı r. Qaraçuxur qəs. Y.Eyvazov küç. 2C Araz Supermarket (çöl kartomat)  ,49.9817127,40.3929338,412,Suraxanı rayonu,19039
961,Suraxanı r. Qaraçuxur qəs. Y.Əliyev küç. 14C. AL market,49.980756,40.397812,412,Suraxanı rayonu,1515
2316,Suraxanı r. Qaraçuxur ŞTQ. E.Bəkirov küç. ev 338. AL market,49.977961,40.39489,412,Suraxanı rayonu,22028
2337,Suraxanı r. Ramana qəs. S.Əliyev küç. 189B Araz Supermarket (Şuşa filialı),50.009568,40.449422,412,Suraxanı rayonu,22050
2170,Suraxanı r. Ramana qəs. S.Əliyev küç. A+ market (çöl kartomat),50.01129,40.450813,412,Suraxanı rayonu,20039
1264,Suraxanı r. S.Cəfərov küç. 34 Baqqal market,49.9847357,40.3838262,412,Suraxanı rayonu,2043
1614,Suraxanı r. Suraxanı qəs. M.Mustafayev küç. 21 Ballı market,50.001073,40.421313,412,Suraxanı rayonu,13013
1270,Suraxanı r. Yeni Günəşli qəs. AB yaşayış sahəsi 127. Araz Supermarket,49.974897,40.383499,412,Suraxanı rayonu,2200
198,Suraxanı r. Yeni Günəşli qəs. AB y/sahəsi 16A Rahat Supermarket,49.97772868128233,40.38207399385249,412,Suraxanı rayonu,288
2379,Suraxanı r. Yeni Günəşli qəs. D massivi. Kristal Abşeron kompleksi. Araz Sun store,49.979737,40.374626,412,Suraxanı rayonu,22092
1155,Suraxanı r. Yeni Günəşli qəs. D yaşayış sahəsi. Bina 8. Armo Store,49.978116573705314,40.37103641317709,412,Suraxanı rayonu,1842
2475,Suraxanı r. Yeni Günəşli qəs. S.Cəfərov küç. Bolmart,49.979127,40.384432,412,Suraxanı rayonu,50084
1953,Suraxanı r. Yeni Günəşli qəs. S.Cəfərov küç. massiv 2V Araz minimarket,49.982598,40.386545,412,Suraxanı rayonu,17016
2823,Suraxanı r. Yeni Günəşli qəs. V massivi Araz Supermarket (Günəşli 1 filialı),49.982627,40.383614,412,Suraxanı rayonu,51135
846,Suraxanı r. Yeni Günəşli qəs. V yaşayış sahəsi. 9B. Bazarstore,49.980447,40.379606,412,Suraxanı rayonu,1269
2825,Suraxanı r. Yeni Günəşli yaşayış massivi Bravo Superstore,49.975443,40.387118,412,Suraxanı rayonu,51137
811,Suraxanı r. Yeni Suraxanı qəs. 14 İyul küç. 1 Market,50.040712,40.424657,412,Suraxanı rayonu,1232
1964,Suraxanı r. Yeni Suraxanı qəs. 14 İyul küç. 3 Ballı market,50.035423,40.430592,412,Suraxanı rayonu,17028
1210,Suraxanı r. Yeni Suraxanı qəs. 14 İyul küç. 5 82 N-li mağaza,50.0325589,40.433455,412,Suraxanı rayonu,1897
2826,Suraxanı r. Yeni Suraxanı qəs. 14 İyul küç. Araz Supermarket,50.03331280667765,40.432464943362724,412,Suraxanı rayonu,51138
253,Suraxanı r. Yeni Suraxanı qəs. Mərkəzi küç. 1A Pepsi market,50.010016,40.449803,412,Suraxanı rayonu,350
3202,Suraxanı r. Zığ-Hövsan şos. Zığ qəs. 1. Rahat Supermarket,49.998151288979585,40.34879629804429,412,Suraxanı rayonu,51515
20,Suraxanı r. Zığ k. H.Allahverdiyev küç. 19. 85 market,49.982267,40.364115,412,Suraxanı rayonu,21
1526,Suraxanı r. Zığ qəs. H.Allahverdiyev küç. 2K. Ballı market,49.985076,40.366183,412,Suraxanı rayonu,11060
1701,Suraxanı r. Zığ qəs. R.Göyüşov küç. 740. Araz Ay market,49.991673,40.37029,412,Suraxanı rayonu,14038
1184,Suraxanı r. Zığ şos. Bahar qəs. Bahar market,50.030594,40.366952,412,Suraxanı rayonu,1871
102,Suraxanı r. Z.Şərifov küç. 22. Ballı market,49.9809786,40.4017229,412,Suraxanı rayonu,110
1959,Xətai r. 2942B məh. N.Tusi küç. 10G. Bazarstore,49.958567,40.379412,393,Xətai rayonu,17022
1561,Xətai r. 8 Noyabr pr. 141 Günəş market,49.9198882,40.3757772,393,Xətai rayonu,12023
2601,Xətai r. 8 Noyabr pr. 15 Azure Busines Center (1-ci mərtəbə),49.87445376035623,40.37840332935349,393,Xətai rayonu,50211
2457,Xətai r. 8 Noyabr pr. 15 Azure Busines Center (2-ci mərtəbə),49.87445376035623,40.37840332935349,393,Xətai rayonu,50066
2378,Xətai r. 8 Noyabr pr. 189A Rahat market (london),49.931094797202434,40.371089835998276,393,Xətai rayonu,22091
97,Xətai r. 8 Noyabr pr. 23 2 saylı Asan Xidmət Mərkəzi,49.8795426,40.3793922,393,Xətai rayonu,102
263,Xətai r. 8 Noyabr pr. 23 Amay T/M Albalı Retro market ,49.8782611365281,40.379146761654546,393,Xətai rayonu,370
3098,Xətai r. 8 Noyabr pr. Bravo Superstore,49.926506,40.37342,393,Xətai rayonu,51411
2775,Xətai r. 8 Noyabr pr. Bravo Superstore ,49.926506,40.37342,393,Xətai rayonu,51086
2350,Xətai r. A.Cəlil küç. 11C Kral market,49.865991,40.37789,393,Xətai rayonu,22063
360,Xətai r. A.Cəlilov küç. 14/16 Aydınoğlu market,49.8695008,40.378189,393,Xətai rayonu,560
2566,Xətai r. A.Cəlilov küç. 69B Bravo Supermarket,49.875613827508,40.37907063862069,393,Xətai rayonu,50175
2547,Xətai r. A.Cəlilov küç. 69B Bravo Supermarket,49.875613827508,40.37907063862069,393,Xətai rayonu,50156
166,Xətai r. A.Ələsgər küç. Ev2946-cı məh. Şuşa market,49.94823861180342,40.37881290553826,393,Xətai rayonu,249
3285,Xətai r. Ağ şəhər. 1/7 Yaşıl Ada küç. Vata travel,49.883879,40.380941,393,Xətai rayonu,51671
1887,Xətai r. Babək küç. 94 Yaşıl market,49.96183475085609,40.3942176068341,393,Xətai rayonu,16036
2830,Xətai r. Babək pr. 10D Araz Supermarket,49.87147090963406,40.38826686080649,393,Xətai rayonu,51142
2411,Xətai r. Babək pr. 1129 Bazarstore,49.86687220004775,40.38789427684184,393,Xətai rayonu,50019
2822,Xətai r. Babək pr. 11/37 Babək Plaza  ,49.87261268930215,40.388852705111816,393,Xətai rayonu,51134
2829,Xətai r. Babək pr. 64 Araz Minimarket,49.9505657,40.3942726,393,Xətai rayonu,51141
2971,Xətai r. Babək pr. 90/2317-ci məhəllə Rahat Ekspres market,49.95870084702762,40.39481232899078,393,Xətai rayonu,51283
2297,Xətai r. Babək pr. 92N Baku Medical Plaza,49.964889490811395,40.39429558307187,393,Xətai rayonu,22008
548,Xətai r. Babək pr. İ.Məmmədov küç. AL market,49.92671612690942,40.39163480756683,393,Xətai rayonu,757
3071,Xətai r. Babək pr. Səhər M market ,49.919388,40.392402,393,Xətai rayonu,51384
3,Xətai r. Babək pr. SOCAR inzibati binası ,49.90115338540345,40.390708360248226,393,Xətai rayonu,3
1622,Xətai r. Babək pr. və İ.Həbibov küç.-nin kəsiş. Göyçə market,49.92025609450621,40.39239980850436,393,Xətai rayonu,13021
2178,Xətai r. Cavanşir küç. Ev.7. Spar market,49.939586,40.371279,393,Xətai rayonu,21007
748,Xətai r. Cavanşir küç. Sevimli market,49.94659691872824,40.368074582268065,393,Xətai rayonu,1149
3217,Xətai r. Əhmədli Metro Stansiyası giriş,49.9540925,40.3862831,393,Xətai rayonu,51530
3216,Xətai r. Əhmədli Metro Stansiyası giriş    ,49.9540925,40.3862831,393,Xətai rayonu,51529
1789,Xətai r. Əhmədli qəs. Babək pr. 94 Bravo Convenience,49.96340540000983,40.39485725724316,393,Xətai rayonu,15050
1464,Xətai r. Əhmədli qəs. Gəncə pr. 81 Bravo Express,49.96159214128549,40.35815250621709,393,Xətai rayonu,10062
1891,Xətai r. Əhmədli qəs. M.Hadi küç. 2341-2343-cü məh. ev 2. Araz Express,49.95264714744161,40.39445512900349,393,Xətai rayonu,16040
2302,Xətai r. Əhmədli qəs. M.Hadi küç. ev 7 Çinar market,49.9546396,40.3925616,393,Xətai rayonu,22014
2472,Xətai r. Əhmədli qəs. N.Tusi küç. 11 Bolmart,49.96104181589844,40.37563140100086,393,Xətai rayonu,50081
2502,Xətai r. Əhmədli qəs. N.Tusi küç. 56-71. A Plus market,49.9599921,40.3780107,393,Xətai rayonu,50111
2778,Xətai r. Əhmədli qəs. N.Tusi küç. Araz Supermarket,49.96254603026139,40.36864567916892,393,Xətai rayonu,51089
2624,Xətai r. Əhmədli qəs. R.Quliyev küç. 4 Bravo Hipermarket,49.94456194718196,40.374718951153696,393,Xətai rayonu,50234
2628,Xətai r. Əhmədli qəs. R.Quliyev küç. 4 Bravo Hipermarket ,49.94456194718196,40.374718951153696,393,Xətai rayonu,50238
2658,Xətai r. Əhmədli qəs. R.Quliyev küç. 4 Bravo Hipermarket ,49.94456194718196,40.374718951153696,393,Xətai rayonu,50268
2928,Xətai r. Gəncə pr. 105 Bizim market ,49.9624035,40.3538477,393,Xətai rayonu,51240
3096,Xətai r. Gəncə pr. 135 Araz Supermarket ,49.96050513850649,40.36345403623507,393,Xətai rayonu,51409
424,Xətai r. Gəncə pr. 2930 məh. Panorama park Bazarstore,49.9614896,40.3559418,393,Xətai rayonu,625
2463,Xətai r. Gəncə pr. 29/42 A Xətai Park. Bravo Express,49.959898,40.364842,393,Xətai rayonu,50072
792,Xətai r. Gəncə pr. 57 Araz Supermarket ,49.96075569604514,40.362567847321145,393,Xətai rayonu,1212
644,Xətai r. Gəncə pr. 63 Bazarstore ,49.962995509711455,40.36170349217488,393,Xətai rayonu,1032
2427,Xətai r. Gəncə pr. Araz Supermarket,49.959715664712505,40.36641982303976,393,Xətai rayonu,50035
1907,Xətai r. Gəncə pr. Bina 73. Buta store,49.9613772,40.3592757,393,Xətai rayonu,16056
320,Xətai r. Gəncə pr. Xətai Park y/k. AL market,49.95943238004647,40.364526994571804,393,Xətai rayonu,519
3237,Xətai r. G.Şıxlinski küç. 15 Dostmart,49.965083,40.376029,393,Xətai rayonu,51551
650,Xətai r. G.Şıxlinski küç. 1. Araz minimarket,49.96443190745229,40.36862513057894,393,Xətai rayonu,1038
2261,Xətai r. G.Şıxlinski küç. 1C. Nur market,49.96672272699399,40.36855771843039,393,Xətai rayonu,21092
2465,Xətai r. G.Şıxlinski küç. 2942A Araz minimarket,49.96536249746933,40.381050452227,393,Xətai rayonu,50074
2226,Xətai r. G.Şıxlinski küç. 2942. Market,49.965411,40.363092,393,Xətai rayonu,21055
141,Xətai r. G.Şıxlinski küç. 29/42 Rahat Supermarket,49.9644438900306,40.372569272904656,393,Xətai rayonu,219
1104,Xətai r. G.Şıxlinski küç. 36 Dostum market  ,49.96660345543062,40.35945399810417,393,Xətai rayonu,1702
834,Xətai r. H.Aslanov Metro Stansiyası giriş ,49.9535092,40.3722383,393,Xətai rayonu,1257
677,Xətai r. H.Aslanov Metro Stansiyası giriş   ,49.9539623,40.3735942,393,Xətai rayonu,1065
1372,Xətai r. H.Aslanov qəs. Kazımzadə küç. ev 17. m. 2. Rəvan market,49.9354113,40.3811591,393,Xətai rayonu,2305
681,Xətai r. H.Salmani küç. 17 Araz Supermarket ,49.860874423984406,40.38369012905924,393,Xətai rayonu,1069
2532,Xətai r. H.Salmani küç. 1 Happy market,49.86202923820426,40.38048761209454,393,Xətai rayonu,50141
2451,Xətai r. İ.Abbasov küç. 7A Grandmart,49.92986729086426,40.37546795349879,393,Xətai rayonu,50060
2386,Xətai r. İ.Əbilov küç. 18. Məhəmməd market,49.958054,40.356381,393,Xətai rayonu,22099
283,Xətai r. İ.İsgəndərov küç. 83 Murad market (çöl),49.9553618,40.3675879,393,Xətai rayonu,410
2978,Xətai r. İ.İsmayılov küç. 2 Rahat Supermarket,49.96982601780515,40.360033830612984,393,Xətai rayonu,51290
403,Xətai r. İ.İsmayılov küç. ev.8. AL market,49.970061357057816,40.36033649602136,393,Xətai rayonu,603
1960,Xətai r. İ.Züfüqarov küç. 105. Araz Express,49.955365,40.365941,393,Xətai rayonu,17023
1225,Xətai r. K.Kərimov küç. 3 Ekonom Market,49.920153667551,40.37673217995491,393,Xətai rayonu,2002
2355,Xətai r. Lütfi Zadə küç. Endi market,49.964836,40.384383,393,Xətai rayonu,22068
2920,Xətai r. M.Hadi küç. 130 Neptun Supermarket,49.95326184397927,40.39429280409766,393,Xətai rayonu,51232
29,Xətai r. M.Hadi küç. 136A. Bravo Express,49.953389,40.390688,393,Xətai rayonu,31
2765,Xətai r. M.Hadi küç. 182 Bravo Express,49.95365709320274,40.38560172148038,393,Xətai rayonu,51076
1048,Xətai r. M.Hadi küç. 23/27. Sevimli Dad market,49.953225336388456,40.38324415917939,393,Xətai rayonu,1645
1889,Xətai r. M.Hadi küç. 25 T. Bravo Supermarket,49.955745,40.388009,393,Xətai rayonu,16038
598,Xətai r. M.Hadi küç. 41 Araz Supermarket (Əhmədli m/s-nın 2-ci çıxışı) (london),49.954455040676734,40.3844441978009,393,Xətai rayonu,948
3105,Xətai r. M.Hadi küç. 51 Araz Supermarket,49.95427586312719,40.38034686004764,393,Xətai rayonu,51418
828,Xətai r. M.Hadi küç. 58 Bazarstore,49.9528327,40.3764366,393,Xətai rayonu,1251
437,Xətai r. M.Hadi küç. 58 Market,49.9518068,40.3765581,393,Xətai rayonu,638
1636,Xətai r. M.Hadi küç. 68B məh. 2945 Yaxın market (çöl),49.9527646,40.3733521,393,Xətai rayonu,13036
3251,Xətai r. M.Hadi küç. 73A. Bravo Express,49.95373730558262,40.37353698967732,393,Xətai rayonu,51565
2488,Xətai r. M.Hadi küç. 75 Grandmart,49.95395144363955,40.37181245955134,393,Xətai rayonu,50097
1295,Xətai r. M.Hadi küç. 80. Ordubad market,49.95184079465097,40.369768044967145,393,Xətai rayonu,2226
2981,Xətai r. M.Hadi küç. 82 korpus 5 Rahat Supermarket,49.95130129164886,40.370370794568686,393,Xətai rayonu,51293
2979,Xətai r. M.Hadi küç. 82 korpus 5 Rahat Supermarket,49.95130129164886,40.370370794568686,393,Xətai rayonu,51291
1422,Xətai r. M.Hadi küç. 99 3-cü kvartal Sevimli market,49.9553449,40.3659714,393,Xətai rayonu,10017
1795,Xətai r. M.Hadi və X.Məmmədov küç. kəsişməsi 2944-cü məh. ev 8A Real market,49.9528663,40.3707907,393,Xətai rayonu,15056
113,Xətai r. M.Hadı küç. 67 Şəqva Market,49.95141609738159,40.374190743974935,393,Xətai rayonu,123
2686,Xətai r. M.Rüstəmov küç. 26 saylı binanın yaxınlığında. Bravo Express,49.960647,40.383292,393,Xətai rayonu,50296
1218,Xətai r. M.Rüstəmov küç. 33. Spar market,49.96242542612222,40.38379022260675,393,Xətai rayonu,1905
1472,Xətai r. M.Rüstəmov küç. İslam market,49.961848789069464,40.38974505810722,393,Xətai rayonu,11003
2921,Xətai r. N.Rəfiyev küç. 25A Neptun Supermarket,49.87619112362843,40.385338798975,393,Xətai rayonu,51233
2661,Xətai r. N.Rəfiyev küç. 29 Bravo Hipermarket,49.874041407563176,40.387714377813005,393,Xətai rayonu,50271
2655,Xətai r. N.Rəfiyev küç. 29 Bravo Hipermarket,49.874041407563176,40.387714377813005,393,Xətai rayonu,50265
2665,Xətai r. N.Rəfiyev küç. 29 Bravo Hipermarket ,49.874041407563176,40.387714377813005,393,Xətai rayonu,50275
339,Xətai r. N.Tusi 195. AL market,49.96296459305439,40.37621566791796,393,Xətai rayonu,538
43,Xətai r. N.Tusi küç. 19. AR DYP Xətai Rayon Dövlət Yol Polisi Şöbəsi ,49.96178063104357,40.37605804733784,393,Xətai rayonu,45
172,Xətai r. N.Tusi küç. 2942. OBA Köhnə Günəşli-5 market,49.962550384500986,40.3662357484762,393,Xətai rayonu,257
2982,Xətai r. N.Tusi küç. 2942 Rahat Supermarket,49.96230342547441,40.366678966398105,393,Xətai rayonu,51294
3072,Xətai r. N.Tusi küç. ev m19 Araz Supermarket ,49.961015,40.37599,393,Xətai rayonu,51385
1071,Xətai r. NZS qəs. Mingəçevir küç. 6. Ramiz market,49.91343645463358,40.384374547105885,393,Xətai rayonu,1669
1138,Xətai r. NZS qəs. R.Bağırov küç.1. Musa market ,49.90573461191859,40.386330519904384,393,Xətai rayonu,1825
1615,Xətai r. P.Həşimov küç. AL market ,49.96809066011719,40.34247088923233,393,Xətai rayonu,13014
1359,Xətai r. P.Naximov küç. 6 Baqqal market,49.98177875199282,40.34202249728073,393,Xətai rayonu,2292
268,Xətai r. Qafqaz küç. Ev.14C. Spar market,49.899248,40.38964,393,Xətai rayonu,383
1836,Xətai r. Q.Məmmədov küç. 7A. Araz Saf market,49.948394,40.370256,393,Xətai rayonu,15099
2323,Xətai r. R.Bağırov küç. 25/1 Rövşən market,49.90200970411885,40.38603430112121,393,Xətai rayonu,22035
2831,Xətai r. R.Bağırov küç. 25 Araz Supermarket ,49.906018552931556,40.38645056025775,393,Xətai rayonu,51143
2835,Xətai r. R.Rza küç. 29/42 Neptun Supermarket,49.95097406766122,40.37207754645527,393,Xətai rayonu,51147
1925,Xətai r. Sadıqcan küç. 15 VIP supermarket,49.95640634289763,40.36133203552528,393,Xətai rayonu,16079
2066,Xətai r. Sadıqcan küç. ev 97 Sərhədçi MTK(çöl kartomat),49.956206797779686,40.36320794435049,393,Xətai rayonu,19011
1172,Xətai r. Sadıqcan və Cavanşir küç. kəs. Araz market,49.950689,40.362754,393,Xətai rayonu,1859
3086,Xətai r. Sarayevo küç. 17 24 saat market,49.96237816384451,40.38662070289877,393,Xətai rayonu,51399
2412,Xətai r. Sarayevo küç. 22A məh. 2325 Bazarstore,49.96072542444478,40.3859192434808,393,Xətai rayonu,50020
2414,Xətai r. Sarayevo küç. 22A məh. 2325 Bazarstore ,49.96072542444478,40.3859192434808,393,Xətai rayonu,50022
2422,Xətai r. Sarayevo küç. 23 Bizim market,49.96476934364462,40.38678100423131,393,Xətai rayonu,50030
2929,Xətai r. Sarayevo küç. 39 Bizim market,49.95598555566075,40.386074090265545,393,Xətai rayonu,51241
1042,Xətai r. S.Əhmədov küç. Xəzər TV,49.91500501743726,40.37789824904671,393,Xətai rayonu,1638
3144,Xətai r. S.Ə.Şirvani küç. 29. 19-cu məh. Bravo Express,49.9612232,40.3926969,393,Xətai rayonu,51457
3070,Xətai r. S.Ə.Şirvani küç. 78 Real-S supermarket,49.960827651814206,40.392679345381154,393,Xətai rayonu,51383
89,Xətai r. S.Ə.Şirvani küç. Bal market,49.9654382,40.3927713,393,Xətai rayonu,94
1523,Xətai r. S.Ə.Şirvani küç. ev 1. Yeni market,49.95653347911035,40.393017016842,393,Xətai rayonu,11056
1969,Xətai r. S.Ə.Şirvani küç. ev 3 Protez-Ortopedik İstehsalat və Reabilitasiya Mərkəzi,49.96412129746366,40.393389330917984,393,Xətai rayonu,17034
160,Xətai r. S.Orucov küç. 1184-cü məh. ev. 23 m. 2 Yağmur market,49.872448,40.380717,393,Xətai rayonu,243
1521,Xətai r. S.Orucov küç. 13 Bravo Convenience,49.86649863934002,40.37999265951046,393,Xətai rayonu,11054
1159,Xətai r. S.Orucov küç. 13 Bravo Convenience,49.86649863934002,40.37999265951046,393,Xətai rayonu,1846
2565,Xətai r. S.Orucov küç. 17C 1188 Freshmart,49.86901893471573,40.38105980669268,393,Xətai rayonu,50174
238,Xətai r. S.Vəzirov küç. 17 Röyal market  ,49.8744948,40.3846157,393,Xətai rayonu,331
3239,Xətai r. S.Vəzirov küç. 22 Sevimli Dad market,49.8701911,40.3838125,393,Xətai rayonu,51553
336,Xətai r. Telnov küç. Araz Vip market,49.966993668333295,40.387476746058205,393,Xətai rayonu,535
1473,Xətai r. UPD qəs. A.Novruzov ev 12. 3 Qardas market,49.904413138389614,40.387011893723546,393,Xətai rayonu,11004
1304,Xətai r. UPD qəs. Z.Yusifov küç. ev. 30. Market,49.91203811329899,40.38669201713319,393,Xətai rayonu,2235
2092,Xətai r. Vunktau küç. Qabil marketin yanı dayanacaq (çöl kartomat),49.9594847404522,40.37207024929337,393,Xətai rayonu,19037
60,Xətai r. Vunqtau küç. H.Əliyev parkının yaxınlığı. 6 saylı Asan Xidmət Mərkəzi,49.955831,40.377986,393,Xətai rayonu,62
2821,Xətai r. X.Məmmədov küç. 24/95 Neptun Supermarket,49.955260210520045,40.37077751212653,393,Xətai rayonu,51133
1061,Xətai r. X.Məmmədov küç. 2942 bina 5. OBA market,49.957292,40.371243,393,Xətai rayonu,1658
144,Xətai r. X.Məmmədov küç. 43C Top Supermarket,49.9566653237133,40.37185934046161,393,Xətai rayonu,223
1217,Xətai r. X.Məmmədov və M.Hadi küç. kəsişməsi. 29/44-cü məh. bina 8. Spar market,49.952149,40.370725,393,Xətai rayonu,1904
862,Xətai r. Xocalı pr. 9/116 Dadlı market,49.8645731,40.3825095,393,Xətai rayonu,1286
3176,Xətai r. Xocalı pr. ev. 2-ci blok. Armo Supermarket,49.870866629323736,40.38391130983391,393,Xətai rayonu,51489
41,Xətai r. Y.Səfərov küç. 23 Azəriqaz Baş İdarə,49.863429401352775,40.38439497492118,393,Xətai rayonu,43
785,Xətai r. Y.Səfərov küç. 8/10 (Mərkəzi Neftçilər Xəstəxanasının yanı) yeraltı keçid ,49.86412491628034,40.380864778056434,393,Xətai rayonu,1205
1686,Xətai r. Zığ qəs. Yeni Zığ Yaşayış Kompleksi. Zığ store,49.9871192,40.366172,393,Xətai rayonu,14023
234,Xətai r. Zığ şos. 29 33 saylı mağaza,49.94656402622938,40.36140896705259,393,Xətai rayonu,327
1152,Xətai r. Zığ şos. 32 saylı binanın yanı. A Plus store,49.94483610333628,40.365619374737214,393,Xətai rayonu,1839
71,Xətai r. Zığ şos. 5 Mir supermarket ,49.93323663186842,40.36956831776241,393,Xətai rayonu,74
2777,Xətai r. Zığ şos. 5 saylı evin yanı Bazarstore ,49.93875561369685,40.3681191603196,393,Xətai rayonu,51088
2779,Xətai r. Zığ şös. ev 8. blok 1. Araz Supermarket,49.94124371651924,40.36738601918913,393,Xətai rayonu,51090
523,Xətai r. Zığ şos. P.Həşimov küç. 13. OBA market (divar arası) ,49.969397,40.342815,393,Xətai rayonu,731
2998,Xətai r. Zığ şos. Rahat market,49.94001349816871,40.36764381822568,393,Xətai rayonu,51310
2997,Xətai r. Zığ şos. Rahat market,49.94001349816871,40.36764381822568,393,Xətai rayonu,51309
176,Xətai r. Zığ yolu. 31A. Blok3. Araz Supermarket,49.947022,40.360047,393,Xətai rayonu,262
2359,Xətai r. Zığ yolu 32 OBA market (london),49.944454164329514,40.3658664332419,393,Xətai rayonu,22072
2633,Xəzər r. Aeroport şos. Bravo Superstore,50.082377,40.462486,391,Xəzər rayonu,50243
2647,Xəzər r. Aeroport şos. Bravo Superstore,50.082377,40.462486,391,Xəzər rayonu,50257
1934,Xəzər r. Albalılıq qəs. A.Rəhimov küç. Megastore,50.06795375170451,40.526198253284875,391,Xəzər rayonu,16088
2625,Xəzər r. Bilgəh qəs. Amburan Mall Bravo Convenience ,50.058524,40.58827,391,Xəzər rayonu,50235
1490,Xəzər r. Binə qəs. A.A.Bakıxanov küç. AL market (çöl),50.100416,40.460588,391,Xəzər rayonu,11022
107,Xəzər r. Binə qəs. A.A.Bakıxanov küç. Yusif market ,50.102546,40.459272,391,Xəzər rayonu,117
1784,Xəzər r. Binə qəs. Atçılıq y/m. Araz Stop market,50.082284,40.464772,391,Xəzər rayonu,15045
1091,Xəzər r. Binə qəs. Atçılıq y/m. Davud market,50.073535,40.484467,391,Xəzər rayonu,1689
93,Xəzər r. Binə qəs. Atçılıq y/m. Real market,50.075189,40.478048,391,Xəzər rayonu,98
540,Xəzər r. Binə qəs. Binə Atçılıq. AL market ,50.075938018608426,40.47559656602272,391,Xəzər rayonu,748
1156,Xəzər r. Binə qəs. Binə sovxozu. Brend market,50.1001128,40.4180566,391,Xəzər rayonu,1843
1683,Xəzər r. Binə qəs. Binə südçülük sovxozu. Vaqif küç ev 70. Grandmart,50.1074095,40.4177118,391,Xəzər rayonu,14020
1725,Xəzər r. Binə qəs. Bünyadzadə küç. 16. Araz N1 market,50.09467492141425,40.45107667740261,391,Xəzər rayonu,14062
674,Xəzər r. Binə qəs. Cənub-Şərq y/m. Lider market,50.103294,40.446548,391,Xəzər rayonu,1062
1831,Xəzər r. Binə qəs. Donuzkökəltmə sovx. AL market,50.08201825636798,40.43785559850001,391,Xəzər rayonu,15094
430,Xəzər r. Binə qəs. Ə.İsazadə küç. 1 Qartal market ,50.088849,40.44706,391,Xəzər rayonu,631
1113,Xəzər r. Binə qəs. Ə.İsazadə küç. Araz Supermarket,50.08759,40.450004,391,Xəzər rayonu,1800
2800,Xəzər r. Binə qəs. Ə.İsazadə küç. Araz Supermarket ,50.08759,40.450004,391,Xəzər rayonu,51111
1977,Xəzər r. Binə qəs. Ə.İsazadə küç. Ay market,50.096793415184116,40.43502096323017,391,Xəzər rayonu,17042
1251,Xəzər r. Binə qəs. Ə.İsazadə küç. Neon market,50.104905426390154,40.42127086177835,391,Xəzər rayonu,2029
849,Xəzər r. Binə qəs. Ə.İsazadə küç. Pazzar market,50.083132,40.453759,391,Xəzər rayonu,1273
573,Xəzər r. Binə qəs. Ə.Vahid küç. Nur market ,50.090406,40.444576,391,Xəzər rayonu,922
1625,Xəzər r. Binə qəs. Ə.Vahid küç. Rvarud market,50.099668,40.430258,391,Xəzər rayonu,13024
2480,Xəzər r. Binə qəs. F.Aynulov küç. Bazarstore,50.088173,40.449664,391,Xəzər rayonu,50089
10,Xəzər r. Binə qəs. Hava Nəqliyyatında Baş Gömrük İdarəsi,50.05368789923457,40.45692154967996,391,Xəzər rayonu,10
691,Xəzər r. Binə qəs. H.Hasilov küç. Ballı market,50.079966,40.44717,391,Xəzər rayonu,1080
1467,Xəzər r. Binə qəs. Hövsan Südçülük Sovxozu ev. m gedən yol. Araz Supermarket,50.092039,40.442104,391,Xəzər rayonu,10065
1032,Xəzər r. Binə qəs. Hövsan Südçülük Sovxozu y/m. A.İsayev küç. 8C Şok Store,50.1059373,40.4194658,391,Xəzər rayonu,1628
724,Xəzər r. Binə qəs. Hövsan Südçülük Sovxozu y/m. Amin market,50.113598,40.427414,391,Xəzər rayonu,1125
2286,Xəzər r. Binə qəs. Hövsan Südçülük Sovxozu y/m. Araz Supermarket,50.0938928,40.4395673,391,Xəzər rayonu,21117
1167,Xəzər r. Binə qəs. Hövsan Südçülük Sovxozu y/m. Ə.İsazadə küç. Şok market,50.1034184,40.4242796,391,Xəzər rayonu,1854
1077,Xəzər r. Binə qəs. Hövsan Südçülük Sovxozu y/m. Uğur market,50.1115097,40.4177277,391,Xəzər rayonu,1675
2314,Xəzər r. Binə qəs. Məmmədhüseynov küç. 25 Baqqal market,50.09753,40.454064,391,Xəzər rayonu,22026
143,Xəzər r. Binə qəs. Mərdəkan şos. ev 34H-m. AL market,50.069923,40.455766,391,Xəzər rayonu,222
1054,Xəzər r. Binə qəs. Milli Aviasiya Akademiyası Hotel Akademiya,50.069635,40.453755,391,Xəzər rayonu,1651
2158,Xəzər r. Binə qəs. Milli Aviasiya Akademiyası İdman Kompleksi (çöl kartomat),50.068023,40.453663,391,Xəzər rayonu,20025
2012,Xəzər r. Binə qəs. Milli Aviasiya Akademiyası şəhərciyi (çöl kartomat),50.065953,40.449377,391,Xəzər rayonu,18032
1379,Xəzər r. Binə qəs. Qarapapaq y/m. Şok market,50.101251,40.426186,391,Xəzər rayonu,4102
2999,Xəzər r. Binə qəs. Sovxoz şos. 3-cü km. Rahat market,50.10353815629203,40.42306888115341,391,Xəzər rayonu,51311
8,Xəzər r. Binə qəs. Südçülük sovxozu. 4-cü sahə X.Aslanov küç. Yardımlı market,50.129106,40.409953,391,Xəzər rayonu,8
365,Xəzər r. Binə qəs. S.Vurğun küç. AL market,50.07585193334999,40.448107187651175,391,Xəzər rayonu,565
3077,Xəzər r. Binə qəs. Vaqif küç. Hövsan südçülük sovxozu. ev 71. Araz Supermarket,50.108761,40.417564,391,Xəzər rayonu,51390
1894,Xəzər r. Binə qəs. Xətai küç. Hüseyn market,50.11051487733582,40.44892388072543,391,Xəzər rayonu,16043
1804,Xəzər r. Buzovna qəs. Abşeron küç. Ramin market ,50.057011241204904,40.51771832651132,391,Xəzər rayonu,15065
1124,Xəzər r. Buzovna qəs. Albalılıq massivi. M.Namazov küç. Əli dayı market,50.068904,40.528891,391,Xəzər rayonu,1811
1859,Xəzər r. Buzovna qəs. Albalılıq yolu Araz Supermarket ,50.093686,40.519076,391,Xəzər rayonu,16008
551,Xəzər r. Buzovna qəs. AL market,50.114166,40.488724,391,Xəzər rayonu,760
1347,Xəzər r. Buzovna qəs. A.Rəhimov küç. Nihad market,50.053236,40.52625,391,Xəzər rayonu,2279
3000,Xəzər r. Buzovna qəs. H.Eyvazov küç. 1 Rahat market,50.101328646832044,40.516938523823136,391,Xəzər rayonu,51312
3186,Xəzər r. Buzovna qəs. H.Eyvazov küç. Araz Supermarket,50.102223,40.516821,391,Xəzər rayonu,51499
1806,Xəzər r. Buzovna qəs. İ.Rəhimov küç. 75. Dəniz market,50.101072,40.520638,391,Xəzər rayonu,15067
1166,Xəzər r. Buzovna qəs. M.Ə.Sabir küç. 22A Albalı Retro market,50.070928,40.517664,391,Xəzər rayonu,1853
1860,Xəzər r. Buzovna qəs. M.Musayev küç. dön. 1 Baqqal market,50.107149,40.502684,391,Xəzər rayonu,16009
145,Xəzər r. Buzovna qəs. Naxçıvan küç. AL market ,50.10135921856867,40.502374655818286,391,Xəzər rayonu,224
388,Xəzər r. Buzovna qəs. R.İmanov küç. Araz minimarket ,50.099919,40.52361,391,Xəzər rayonu,588
992,Xəzər r. H.Əliyev adına Bakı Hava Limanı Cənub Terminalı (1-ci mərtəbə),50.050371831543906,40.46347046767205,391,Xəzər rayonu,1548
450,Xəzər r. H.Əliyev adına Bakı Hava Limanı Şimal Terminalı (1-ci mərtəbə),50.049290881758054,40.461863553850286,391,Xəzər rayonu,651
2911,Xəzər r. H.Əliyev adına Beynəlxalq Hava Limanı 1-ci Terminal (1-ci mərtəbə),50.053055560882314,40.46499736423388,391,Xəzər rayonu,51223
2040,Xəzər r. Mərdəkan qəs. 28 May küç. 113 Meyvə (çöl kartomat),50.13782207780698,40.486989038431894,391,Xəzər rayonu,18062
2370,Xəzər r. Mərdəkan qəs. 28 May küç. 29 Xəzər market,50.140578,40.482408,391,Xəzər rayonu,22083
99,Xəzər r. Mərdəkan qəs. B.Əliyev küç. 15E OBA market,50.157072,40.481808,391,Xəzər rayonu,105
1066,Xəzər r. Mərdəkan qəs. H.Z.Tağıyev küç. 176 Qastronom (london) ,50.156526,40.50772,391,Xəzər rayonu,1663
799,Xəzər r. Mərdəkan qəs. H.Z.Tağıyev küç. Qarışıq mallar mağazası (london),50.151438,40.50092,391,Xəzər rayonu,1219
3042,Xəzər r. Mərdəkan qəs. Mərdəkan-Buzovna yolu. Rahat market,50.163103,40.509128,391,Xəzər rayonu,51355
1939,Xəzər r. Mərdəkan qəs. R.Qasımov küç. 72B Qastronom market,50.155764,40.491754,391,Xəzər rayonu,17001
138,Xəzər r. Mərdəkan qəs. Sergey Yesenin küç. ev76/1. Rahat Gourmet market,50.14813199436321,40.49048940196512,391,Xəzər rayonu,216
2468,Xəzər r. Mərdəkan qəs. S.Yesenin küç. 1/10 Grandmart,50.13216,40.48662,391,Xəzər rayonu,50077
1028,Xəzər r. Mərdəkan qəs. S.Yesenin küç. 1. Mərdəkan market,50.13359011113078,40.4870801756454,391,Xəzər rayonu,1624
2306,Xəzər r. Mərdəkan qəs. S.Yesenin küç. 92 Abşeron market,50.160229,40.487369,391,Xəzər rayonu,22018
1971,Xəzər r. Mərdəkan qəs. S.Yesenin küç. Mərdəkan bazar,50.13704774560341,40.4877078846368,391,Xəzər rayonu,17036
2585,Xəzər r. Mərdəkan qəs. Yesenin küç. 102 Bravo Supermarket ,50.16674,40.486382,391,Xəzər rayonu,50194
2587,Xəzər r. Mərdəkan qəs. Yesenin küç. 102 Bravo Supermarket ,50.16674,40.486382,391,Xəzər rayonu,50196
1517,Xəzər r. Mərdəkan qəs. Yesenin küç. Andromed Tibb Mərkəzi (london),50.159022,40.487525,391,Xəzər rayonu,11050
726,Xəzər r. Mərdəkan qəs. Yesenin küç. Elvin market,50.156944,40.487712,391,Xəzər rayonu,1127
414,Xəzər r. Mərdəkan qəs. Yesenin küç. ilə B.Əliyev küç. kəsişməsi Market,50.156616,40.487669,391,Xəzər rayonu,614
1532,Xəzər r. Mərdəkan ŞTQ. Mərdəkan şos. Grandmart,50.0829626,40.4628101,391,Xəzər rayonu,11066
1893,Xəzər r. Pirallahı qəs. 39-cu məh. M market  ,50.337933,40.450869,391,Xəzər rayonu,16042
589,Xəzər r. Pirallahı qəs. İ.Məcidov küç. Market,50.339035,40.395177,391,Xəzər rayonu,939
1670,Xəzər r. Pirallahı qəs. Laçın market,50.337141,40.455836,391,Xəzər rayonu,14007
1681,Xəzər r. Pirallahı qəs. Laçın market,50.337141,40.455836,391,Xəzər rayonu,14018
787,Xəzər r. Pirallahı qəs. M.Əzizbəyov küç. Laçın market 2,50.336601,40.453206,391,Xəzər rayonu,1207
1998,Xəzər r. Pirallahı qəs. M.Əzizbəyov küç. Natiq market (çöl kartomat),50.335907,40.454459,391,Xəzər rayonu,18018
2098,Xəzər r. Pirallahı qəs. S.Vurğun küç. 43 Ahəs market (çöl kartomat),50.326054,40.468107,391,Xəzər rayonu,19043
256,Xəzər r. Qala-Mərdəkan yolu. Premium market,50.141174,40.468457,391,Xəzər rayonu,353
2341,Xəzər r. Qala qəs. 3 saylı Zeytun sovxoz küç. ev. 120A Araz Supermarket,50.161000407414356,40.44905958461337,391,Xəzər rayonu,22054
2456,Xəzər r. Qala qəs. Bolmart,50.260802,40.419391,391,Xəzər rayonu,50065
2980,Xəzər r. Qala qəs. Hava Limanı şos. Rahat market,50.10980661421631,40.47467135078941,391,Xəzər rayonu,51292
3001,Xəzər r. Qala qəs. Hava Limanı şos. Rahat market,50.10980661421631,40.47467135078941,391,Xəzər rayonu,51313
1884,Xəzər r. Qala qəs. Xaşaxuna bağları Avro market,50.209354,40.427997,391,Xəzər rayonu,16033
1533,Xəzər r. Qala qəs. Xaşaxuna bağları Ucuzluq market ,50.209157,40.427956,391,Xəzər rayonu,11067
2298,Xəzər r. Qala qəs. Zirə südçülük sovxozu.Rahat Supermarket,50.2293542,40.4241113,391,Xəzər rayonu,22009
1307,Xəzər r. R.İmanov 5 Azərbaycan Respublikasının Prezidentinin işlər idarəsi pansionatı (london),50.086517,40.54183,391,Xəzər rayonu,2238
583,Xəzər r. Şağan qəs. N.Məmmədov küç. 3 Buta market ,50.12888,40.491518,391,Xəzər rayonu,933
484,Xəzər r. Şağan qəs. Yeni Sahə y/m. Nazim market ,50.1155191,40.49177,391,Xəzər rayonu,688
1474,Xəzər r. Şüvəlan qəs. 1/1. Əkizlər market,50.185494,40.474029,391,Xəzər rayonu,11005
2783,Xəzər r. Şüvəlan qəs. A.İldırım küç. 11 Araz Supermarket,50.170439,40.486745,391,Xəzər rayonu,51094
2782,Xəzər r. Şüvəlan qəs. A.İldırım küç. 11 Araz Supermarket,50.170439,40.486745,391,Xəzər rayonu,51093
1033,Xəzər r. Şüvəlan qəs. A.İldırım küç. 54 Şüvəlan market,50.179988,40.4846045,391,Xəzər rayonu,1629
1951,Xəzər r. Şüvəlan qəs. A.İldırım küç. 54 Şüvəlan market,50.179988,40.4846045,391,Xəzər rayonu,17014
1227,Xəzər r. Şüvəlan qəs. A.İldırım küç. 76. 3 mərtəbə market,50.17557,40.485214,391,Xəzər rayonu,2005
1876,Xəzər r. Şüvəlan qəs. A.İldırım küç. Günəş market (london) ,50.193101,40.484695,391,Xəzər rayonu,16025
1847,Xəzər r. Şüvəlan qəs. H.Əliyev küç. Xəzər market,50.195918,40.483555,391,Xəzər rayonu,15110
59,Xəzər r. Şüvəlan qəs. İ.Muradov küç. Əli market,50.180473,40.475986,391,Xəzər rayonu,61
2005,Xəzər r. Şüvəlan qəs. Mayak yolu. Klub dachnikov restoranı (çöl kartomat),50.222354,40.489198,391,Xəzər rayonu,18025
1687,Xəzər r. Şüvəlan qəs. Nizami küç. 29. AL market,50.171674,40.479818,391,Xəzər rayonu,14024
2784,Xəzər r. Şüvəlan qəs. S.Yesenin küç. 106 Ləziz Cake house,50.165356,40.487077,391,Xəzər rayonu,51095
489,Xəzər r. Şüvəlan ŞTQ. L.Starçuk küç. ev 18. m. Araz minimarket,50.198303,40.496319,391,Xəzər rayonu,693
98,Xəzər r. Türkan qəs. DSX Hərbi hissə  ,50.156997,40.364059,391,Xəzər rayonu,103
1675,Xəzər r. Türkan qəs. H.Hacıyev küç. 25 Market,50.210294,40.359458,391,Xəzər rayonu,14012
622,Xəzər r. Türkan qəs. İsmayılov küç. 68 Nihad-Nicat market,50.220189,40.368463,391,Xəzər rayonu,1010
1703,Xəzər r. Türkan qəs. Xanlar küç. 8 314 Market ,50.219092,40.365568,391,Xəzər rayonu,14040
2526,Xəzər r. Zağulba qəs. R.İmanov küç. Zaqulba Mall,50.0980382,40.527258,391,Xəzər rayonu,50135
3200,Xəzər r. Zağulba qəs. R.İmanov küç. Zaqulba Mall,50.0980382,40.527258,391,Xəzər rayonu,51513
4,Xəzər r. Zirə qəs. Ə.V.Babayev küç. ev 11 AL market ,50.290737,40.364876,391,Xəzər rayonu,4
2293,Xəzər r. Zirə qəs. S.Əzimzadə küç. Həyat market,50.284509,40.371294,391,Xəzər rayonu,22004
1840,Xəzər r. Zirə qəs. Yeni sahə Super market,50.285567,40.375502,391,Xəzər rayonu,15103
116,Xəzər r. Zığ qəs. Binə şos. 22-ci km. Bazarstore  ,50.0959587,40.4003279,391,Xəzər rayonu,126
2140,Yasamal r. 20 Yanvar küç. Alatava 2  kafenin qarşısı dayanacaq (çöl kartomat) ,49.802901,40.410755,392,Yasamal rayonu,20007
2221,Yasamal r. 20 Yanvar Metro Stansiyası giriş,49.808496,40.403587,392,Yasamal rayonu,21050
422,Yasamal r. 20 Yanvar Metro Stansiyası giriş,49.808506,40.403622,392,Yasamal rayonu,623
1037,Yasamal r. 20 Yanvar Metro Stansiyası giriş,49.808506,40.403622,392,Yasamal rayonu,1633
3213,Yasamal r. 20 Yanvar Metro Stansiyası keçid,49.808506,40.403622,392,Yasamal rayonu,51526
2483,Yasamal r. A.Abbasov küç. 125C Bazarstore,49.8107165,40.3859517,392,Yasamal rayonu,50092
2348,Yasamal r. A.Abbasov küç. 125C Bazarstore,49.8107165,40.3859517,392,Yasamal rayonu,22061
697,Yasamal r. A.Abbasov küç. 132/136 Bol market (çöl),49.814726,40.386055,392,Yasamal rayonu,1087
1428,Yasamal r. A.Abbasov küç. 1 Bravo Express,49.8043509,40.3855922,392,Yasamal rayonu,10023
2021,Yasamal r. A. Mirzəyev küç. 15B Atlant market (çöl kartomat),49.822414,40.38474,392,Yasamal rayonu,18041
1729,Yasamal r. A.M.Şərifzadə küç. 118A Sharifzade center,49.8038732,40.3836943,392,Yasamal rayonu,14066
2423,Yasamal r. A.M.Şərifzadə küç. 154A Bizim market,49.804068,40.389249,392,Yasamal rayonu,50031
86,Yasamal r. A.M.Şərifzadə küç 157. 3 saylı Asan Xidmət Mərkəzi,49.804344,40.378832,392,Yasamal rayonu,91
649,Yasamal r. A.M.Şərifzadə küç. 1 Araz Supermarket,49.804316,40.3820779,392,Yasamal rayonu,1037
2615,Yasamal r. A.M.Şərifzadə küç. 1 Araz Supermarket,49.804316,40.3820779,392,Yasamal rayonu,50225
3027,Yasamal r. A.M.Şərifzadə küç. 212 Ak. M.Ə.Mirqasımov adına Respublika Klinik Xəstəxanası,49.804748,40.403711,392,Yasamal rayonu,51340
2603,Yasamal r. A.M.Şərifzadə küç. 231/233 Bravo Convenience,49.801251,40.398412,392,Yasamal rayonu,50213
2599,Yasamal r. A.M.Şərifzadə küç. 231/233 Bravo Convenience,49.801251,40.398412,392,Yasamal rayonu,50209
80,Yasamal r. A.M.Şərifzadə küç. 241 İctimai TV,49.802047,40.402181,392,Yasamal rayonu,85
1585,Yasamal r. A.M.Şərifzadə küç. 294 Fresh market (çöl),49.8042249,40.3813953,392,Yasamal rayonu,12051
3233,Yasamal r. A.M.Şərifzadə küç. 301A Bravo Express,49.802313,40.391302,392,Yasamal rayonu,51547
1609,Yasamal r. A.M.Şərifzadə küç. 33 Dondurma market (london),49.802557,40.390813,392,Yasamal rayonu,13007
2115,Yasamal r. A.M.Şərifzadə küç. 34 Grandmart Ekspress (çöl kartomat),49.805198,40.374793,392,Yasamal rayonu,19061
1162,Yasamal r. A.M.Şərifzadə küç. 66. 3142-ci məh. Bravo Express,49.804611,40.378417,392,Yasamal rayonu,1849
2250,Yasamal r. A.M.Şərifzadə küç. 73 Fuad market,49.803493,40.384421,392,Yasamal rayonu,21081
2030,Yasamal r. A.M.Şərifzadə küç. Baku Electronics ilə üzbəüz dayanacaq (çöl kartomat),49.803117,40.388706,392,Yasamal rayonu,18050
169,Yasamal r. A.Sultanova küç. 11 AZMİU,49.813159,40.369986,392,Yasamal rayonu,253
1930,Yasamal r. B.Bağırova küç. 12 Maryam plaza,49.81157,40.377982,392,Yasamal rayonu,16084
696,Yasamal r. B.Məcidov küç. 47 Pepsi market (çöl),49.82644,40.380322,392,Yasamal rayonu,1086
372,Yasamal r. B.Məcidov küç. 57 Rahat ekspress (london),49.827295,40.380385,392,Yasamal rayonu,572
36,Yasamal r. B.Səfəroğlu küç. 5 Sizin market,49.822106,40.371489,392,Yasamal rayonu,38
2109,Yasamal r. B.Vahabzadə küç. Elmlər Akademiyası metrosunun çıxışı dayanacaq (çöl kartomat),49.814677,40.375456,392,Yasamal rayonu,19055
2060,Yasamal r. C.Cabbarlı küç. 21 AL market (çöl kartomat),49.829821,40.38121,392,Yasamal rayonu,19005
3235,Yasamal r. C.Cabbarlı küç. 44 Caspian Plaza,49.8286189,40.385335,392,Yasamal rayonu,51549
1904,Yasamal r. C.Cabbarlı küç 48A Garden shop (london),49.829132,40.383773,392,Yasamal rayonu,16053
2591,Yasamal r. C.Cabbarlı küç. 609 Bravo Supermarket Globus Center,49.8281134,40.3848775,392,Yasamal rayonu,50200
2620,Yasamal r. C.Cabbarlı küç. 609 Bravo Supermarket Globus Center,49.8281134,40.3848775,392,Yasamal rayonu,50230
1437,Yasamal r. D.Bünyadzadə küç. 12 Dost market,49.795234,40.390466,392,Yasamal rayonu,10032
443,Yasamal r. D.Bünyadzadə küç. 34B Yasamal Mall (london),49.794266,40.390548,392,Yasamal rayonu,644
1060,Yasamal r. D.Bünyadzadə küç. 3 Araz minimarket,49.796966,40.398586,392,Yasamal rayonu,1657
3130,Yasamal r. D.Bünyadzadə küç. 5 Rahat Supermarket,49.79404,40.390068,392,Yasamal rayonu,51443
1775,Yasamal r. D.Bünyadzadə küç. 5 Rahat Supermarket (london),49.79404,40.390068,392,Yasamal rayonu,15036
727,Yasamal r. Elmlər Akademiyası metro stansiyasının qarşısı (tumba) ,49.815742,40.375061,392,Yasamal rayonu,1128
512,Yasamal r. Ə.Əhmədov küç. 100 Ucuzluq 77 (çöl),49.78726,40.389683,392,Yasamal rayonu,720
2930,Yasamal r. Ə.Əhmədov küç. 19 Bizim market,49.794433,40.393944,392,Yasamal rayonu,51242
1704,Yasamal r. Ə.Əhmədov küç. 24B Top Supermarket,49.794274,40.3915502,392,Yasamal rayonu,14041
1426,Yasamal r. Ə.Əhmədov küç. 38C Şahdağ market,49.804754,40.394517,392,Yasamal rayonu,10021
749,Yasamal r. Ə.Əhmədov küç. 41 Araz Etalon market ,49.788835,40.389121,392,Yasamal rayonu,1150
3019,Yasamal r. Ə.Əhmədov küç. 43A Bravo Supermarket,49.787747,40.388079,392,Yasamal rayonu,51332
2361,Yasamal r. Ə.Əhmədov küç. 45 Bizim market ,49.786324,40.388781,392,Yasamal rayonu,22074
965,Yasamal r. Ə.Əhmədov küç. 7 Yadigar market,49.7888068,40.3910775,392,Yasamal rayonu,1519
3270,Yasamal r. Ə.Əhmədov küç. 9 döngə 5 Araz Supermarket ,49.787523,40.387417,392,Yasamal rayonu,51584
2931,Yasamal r. Ə.Əhmədov küç. Bravo Superstore,49.794792,40.393968,392,Yasamal rayonu,51243
2956,Yasamal r. Ə.Əhmədov küç. Bravo Superstore,49.794792,40.393968,392,Yasamal rayonu,51268
3222,Yasamal r. Ə.Əhmədov küç. Bravo Superstore,49.794792,40.393968,392,Yasamal rayonu,51536
2110,Yasamal r. Ə.Ələkbərov küç. 130D AL market (çöl kartomat),49.8181,40.370688,392,Yasamal rayonu,19056
2604,Yasamal r. Ə.Ələkbərov küç. 510 Araz Exspress,49.818104,40.370853,392,Yasamal rayonu,50214
2103,Yasamal r. Ə.Ələkbərov küç. 82A Bol market (çöl kartomat) ,49.818259,40.3692,392,Yasamal rayonu,19048
2366,Yasamal r. Ə.Haqverdiyev küç. 56 Food market,49.820293,40.379496,392,Yasamal rayonu,22079
2462,Yasamal r. Ə.Haqverdiyev küç. məh. 574 Araz Superstore,49.8111176,40.3801752,392,Yasamal rayonu,50071
2466,Yasamal r. Ə.Haqverdiyev küç. məh. 574 Araz Superstore,49.8111176,40.3801752,392,Yasamal rayonu,50075
3226,Yasamal r. Ə.Salamzadə küç. 7. 1055-ci məh. Bravo Express,49.8103557,40.3932174,392,Yasamal rayonu,51540
44,Yasamal r. F.İbrahimbəyov küç. 12 Əla supermarket ,49.825372,40.381833,392,Yasamal rayonu,46
1204,Yasamal r. Füzuli meydanı. Yeraltı keçid,49.8322708,40.3759455,392,Yasamal rayonu,1891
115,Yasamal r. Füzuli meydanı. Yeraltı keçid ,49.832963,40.375003,392,Yasamal rayonu,125
79,Yasamal r. H.Cavid pr. 25 AZTU,49.815456,40.370133,392,Yasamal rayonu,84
31,Yasamal r. H.Cavid pr. 25 AZTU,49.815456,40.370133,392,Yasamal rayonu,33
758,Yasamal r. H.Cavid pr. 4A məh. 500 Ruzi market,49.8197443,40.3647383,392,Yasamal rayonu,1159
1539,Yasamal r. H.Cavid pr. 518 Sevimli dad,49.816788,40.366739,392,Yasamal rayonu,11073
2078,Yasamal r. H.Cavid pr. 528-ci məh Xurghun Dönər (çöl kartomat)   ,49.8166697,40.369777,392,Yasamal rayonu,19023
204,Yasamal r. H.Cavid pr. 91 OBA baş ofis,49.815118,40.383558,392,Yasamal rayonu,295
2433,Yasamal r. H.Cavid pr. Araz Superstore,49.8164067,40.3668719,392,Yasamal rayonu,50041
1991,Yasamal r. H.Cavid pr. AZTU ilə üzbəüz dayanacaq (çöl kartomat),49.816719,40.370416,392,Yasamal rayonu,18010
2244,Yasamal r. H.Cavid pr. (H.Cavid parkı) (tumba),49.815993,40.373291,392,Yasamal rayonu,21075
635,Yasamal r. H.Cavid pr. Mirvari Park Y/K (london) ,49.8147833,40.3832122,392,Yasamal rayonu,1023
2448,Yasamal r. H.Məcidov küç. 3 Grandmart Supermarket,49.810095,40.383671,392,Yasamal rayonu,50057
584,Yasamal r. H.Zərdabi pr. 31/55 Real market,49.806503,40.395041,392,Yasamal rayonu,934
419,Yasamal r. H.Zərdabi pr. 3166-cı məh. Araz A supermarket,49.8067812,40.3951806,392,Yasamal rayonu,620
2362,Yasamal r. H.Zərdabi pr. 3166-cı məh. Şok market,49.806467,40.395307,392,Yasamal rayonu,22075
3223,Yasamal r. H.Zərdabi pr. 574-cü məh. Şokolad Tower Y/K Bravo Supermarket,49.8091547,40.3808667,392,Yasamal rayonu,51537
2237,Yasamal r. H.Zərdabi pr. 65 Qələbə market,49.8064594,40.3893517,392,Yasamal rayonu,21068
2688,Yasamal r. H.Zərdabi pr. 811. 3165-ci məh. Bravo Express,49.806583,40.403944,392,Yasamal rayonu,50298
863,Yasamal r. H.Zərdabi pr. 92A Zeytun market,49.8078742,40.3996972,392,Yasamal rayonu,1287
2154,Yasamal r. H.Zərdabi pr. 92A Zeytun market (çöl kartomat),49.8078742,40.3996972,392,Yasamal rayonu,20021
294,Yasamal r. H.Zərdabi pr. ev 1630 AL market (çöl),49.805054,40.389231,392,Yasamal rayonu,421
1834,Yasamal r. H.Zərdabi pr. məh. 593 Araz minimarket ,49.8083349,40.3858741,392,Yasamal rayonu,15097
1106,Yasamal r. İnşaatçılar Metro Stansiyası giriş,49.802904,40.390275,392,Yasamal rayonu,1704
321,Yasamal r. İnşaatçılar Metro Stansiyası giriş,49.802904,40.390275,392,Yasamal rayonu,520
66,Yasamal r. İnşaatçılar pr 12/26. Araz Murad market ,49.821301,40.378993,392,Yasamal rayonu,68
165,Yasamal r. İnşaatçılar pr. 1 Ədliyyə Nazirliyi,49.818329,40.37444,392,Yasamal rayonu,248
32,Yasamal r. İnşaatçılar pr. 2 Dövlət Gömrük Komitəsi,49.81906,40.3740111,392,Yasamal rayonu,34
819,Yasamal r. İnşaatçılar pr. 31 Araz Supermarket (london)  ,49.8231351,40.3839985,392,Yasamal rayonu,1240
6,Yasamal r. İnşaatçılar pr. 39 ADMİU,49.820895,40.379766,392,Yasamal rayonu,6
174,Yasamal r. İnşaatçılar pr. 4A Brand Credit,49.819196,40.374928,392,Yasamal rayonu,259
1183,Yasamal r. İnşaatçılar pr. (İzmir parkının yaxınlığı) (tumba),49.824071,40.385378,392,Yasamal rayonu,1870
1410,Yasamal r. İnşaatçılar pr. (Mədəniyyət və İncəsənət universiteti yanı) yeraltı keçid ,49.821114,40.379568,392,Yasamal rayonu,10005
1202,Yasamal r. İnşaatçılar pr. və B.Bağırova küç. kəsişməsi (Cafe City-nin yaxınlığı) (tumba),49.823573,40.384047,392,Yasamal rayonu,1889
2570,Yasamal r. İ.Qutqaşınlı küç. 112 MilliÖN Xidmət Mərkəzi,49.820416,40.374447,392,Yasamal rayonu,50179
1542,Yasamal r. İ.Qutqaşınlı küç. 112 MilliÖN Xidmət Mərkəzi (divar arası),49.820416,40.374447,392,Yasamal rayonu,12001
3107,Yasamal r. İ.Qutqaşınlı küç. 507/511 Grandmart,49.8213032,40.3681858,392,Yasamal rayonu,51420
469,Yasamal r. İ.Qutqaşınlı küç. 85 Araz minimarket,49.820695,40.372866,392,Yasamal rayonu,670
1606,Yasamal r. İ.Talıblı küç. 201 Yol market,49.801516,40.394538,392,Yasamal rayonu,13004
883,Yasamal r. İzmir küç. 9C Araz Centre market,49.820605,40.391807,392,Yasamal rayonu,1307
2272,Yasamal r. K.Kazımzadə küç. 118 Gömrük Hospitalı,49.8187954,40.3783577,392,Yasamal rayonu,21103
2303,Yasamal r. K.Rəhimov küç. 14 Dalğa market,49.8014195,40.3863243,392,Yasamal rayonu,22015
2104,Yasamal r. Landau küç.Vergilər Nazirliyinə çatmamış dayanacaq (çöl kartomat),49.817362,40.372618,392,Yasamal rayonu,19049
2135,Yasamal r. Mətbuat pr. 19A Xalq Sığorta (çöl kartomat),49.80752,40.371032,392,Yasamal rayonu,20002
1487,Yasamal r. Mətbuat pr. 3141 Sülü market,49.8080749,40.377834,392,Yasamal rayonu,11018
3234,Yasamal r. M.F.Axundov küç. 179 Bravo Express,49.825639,40.382965,392,Yasamal rayonu,51548
346,Yasamal r. M.Həsənov küç. 3A Netto market ,49.802589,40.40533,392,Yasamal rayonu,545
1255,Yasamal r. M.Həsənov küç. 42 Spar market,49.7996671,40.406105,392,Yasamal rayonu,2033
835,Yasamal r. M.İbrahimov küç. 422-ci məh. Araz minimarket,49.8328952,40.3779654,392,Yasamal rayonu,1258
1984,Yasamal r. M.Müşfiq küç. 35E OBA market (çöl kartomat),49.820107,40.365409,392,Yasamal rayonu,18002
22,Yasamal r. M.Müşfiq küç. 501-ci məh. Fövqəladə Hallar Nazirliyi,49.817364,40.36357,392,Yasamal rayonu,23
285,Yasamal r. M.Muxtarov küç.185 Yasamal-10 Y/K (çöl),49.827284,40.384342,392,Yasamal rayonu,412
2376,Yasamal r. M.Naxçıvani küç. 15 Araz Supermarket (london),49.8266508,40.3833643,392,Yasamal rayonu,22089
429,Yasamal r. M.Naxçıvani küç. 15 Araz Supermarket (london),49.8266508,40.3833643,392,Yasamal rayonu,630
760,Yasamal r. M.Naxçıvani küç. 2C Tac market (london),49.824054,40.382717,392,Yasamal rayonu,1161
130,Yasamal r. Moskva pr. 67 Azərsu Baş İdarə,49.80675,40.404599,392,Yasamal rayonu,202
1875,Yasamal r. Moskva pr. 8/31. 68-ci məh. Main Y/K Araz Ruzi Supermarket ,49.800311,40.412859,392,Yasamal rayonu,16024
1989,Yasamal r. Moskva pr. Şamaxinka 20 Yanvar metrosu istiqaməti dayanacaq (çöl kartomat),49.803561,40.410274,392,Yasamal rayonu,18008
682,Yasamal r. M.Seyidov küç. 127/135 Araz Supermarket ,49.806892,40.381756,392,Yasamal rayonu,1070
3032,Yasamal r. M.Seyidov küç. 23 Araz Supermarket,49.8074391,40.378143,392,Yasamal rayonu,51345
1409,Yasamal r. M.Seyidov küç. 23 Araz Supermarket,49.8074391,40.378143,392,Yasamal rayonu,10004
3113,Yasamal r. M.Seyidov küç. 31/38 Rahat Ekspres market,49.807163,40.376199,392,Yasamal rayonu,51426
3100,Yasamal r. M.Şəhriyar küç. 38A Araz Supermarket,49.8122629,40.3775812,392,Yasamal rayonu,51413
3112,Yasamal r. M.Xiyabani küç. 1 Rahat Supermarket,49.797237,40.401049,392,Yasamal rayonu,51425
2575,Yasamal r. M.Xiyabani küç. 202A Bravo Express,49.7924923,40.3989464,392,Yasamal rayonu,50184
2077,Yasamal r. M.Xiyabani küç. Qismət Ş/S-nın yanı (çöl kartomat) ,49.789802,40.394851,392,Yasamal rayonu,19022
1020,Yasamal r. N.Hikmət küç. 73 Bazarstore,49.806599,40.379693,392,Yasamal rayonu,1616
395,Yasamal r. Nizami Metro Stansiyası çıxış (kəmərli),49.829983,40.379156,392,Yasamal rayonu,595
335,Yasamal r. Nizami Metro Stansiyası çıxış (kəmərli),49.829983,40.379156,392,Yasamal rayonu,534
1927,Yasamal r. Nizami Metro Stansiyası çıxış (kəmərli),49.829983,40.379156,392,Yasamal rayonu,16081
1434,Yasamal r. Nizami Metro Stansiyası giriş,49.829796,40.379105,392,Yasamal rayonu,10029
88,Yasamal r. N.Nərimanov pr. 206 466-cı məh. Capital Towers AFB Bank,49.823404,40.3818402,392,Yasamal rayonu,93
69,Yasamal r. N.Nərimanov pr. 206 Capital Towers yaşayış binası,49.823827,40.382129,392,Yasamal rayonu,72
87,Yasamal r. Ş.Mehdiyev küç. 110 Lankon market,49.815772,40.388582,392,Yasamal rayonu,92
2602,Yasamal r. Ş.Mehdiyev küç. 323D Araz Supermarket ,49.8154246,40.3936238,392,Yasamal rayonu,50212
3007,Yasamal r. Ş.Mehdiyev küç. 34A Bolmart,49.817338,40.377545,392,Yasamal rayonu,51319
3008,Yasamal r. Ş.Qurbanov küç. 21 Grandmart Supermarket,49.831353,40.377886,392,Yasamal rayonu,51320
26,Yasamal r. Ş.Qurbanov küç. Nizami Mall,49.830531,40.378841,392,Yasamal rayonu,28
2290,Yasamal r. S.Vurğun küç 151 H.Əliyev adına Müasir Təhsil Kompleksi (london),49.8342568,40.3903783,392,Yasamal rayonu,22001
1900,Yasamal r. Talıblı küç. 24B Bazarstore,49.794603,40.393686,392,Yasamal rayonu,16049
1730,Yasamal r. Talıblı küç. 24B Bazarstore,49.794607,40.393684,392,Yasamal rayonu,14067
2415,Yasamal r. Tbilisi pr. 147 RDM,49.8104023,40.3998271,392,Yasamal rayonu,50023
2521,Yasamal r. Tbilisi pr. 147 RDM Bakı Ürək Mərkəzi,49.8104023,40.3998271,392,Yasamal rayonu,50130
2500,Yasamal r. Tbilisi pr. 147 RDM Oftalmologiya korpusu,49.8104023,40.3998271,392,Yasamal rayonu,50109
2046,Yasamal r. Tbilisi pr. 43 Avropa Otel ilə üzbəüz dayanacaq (çöl kartomat) ,49.821128,40.392945,392,Yasamal rayonu,18069
1645,Yasamal r. Tbilisi pr. 69B Galiano Lounge (çöl) ,49.818552,40.394454,392,Yasamal rayonu,13045
2309,Yasamal r. Tbilisi pr. Alatava 1. ev 16/15 Spar market,49.808895,40.398264,392,Yasamal rayonu,22021
2618,Yasamal r. Tbilisi pr. Alatava 2 Araz Supermarket,49.8141419,40.3976724,392,Yasamal rayonu,50228
3002,Yasamal r. Tbilisi pr. Alatava 2 Araz Supermarket,49.8141419,40.3976724,392,Yasamal rayonu,51314
3228,Yasamal r. T.Xəlilbəyli küç. 31A Bravo Express,49.833897,40.373601,392,Yasamal rayonu,51542
1814,Yasamal r. Xarici dairəvi yol. 2 ev. 11 Sevimli market,49.788209,40.39282,392,Yasamal rayonu,15075
153,Yasamal r. Xarici dairəvi yol. 8 Yasamal Y/K. Araz City market,49.79584,40.375578,392,Yasamal rayonu,233
2611,Yasamal r. Xarici dairəvi yol. 8 Yasamal Y/K Bazarstore ,49.7965831,40.3768726,392,Yasamal rayonu,50221
324,Yasamal r. Xarici dairəvi yol. 8 Yasamal Y/K Uşaq psixo-sosial inkişafı mərkəzi (london),49.795604,40.375749,392,Yasamal rayonu,523
1300,Yasamal r. Xarici dairəvi yol. 8 Zefir Mall,49.793932,40.376545,392,Yasamal rayonu,2231
2180,Yasamal r. Xarici dairəvi yol. ev 10 Royal Park Y/M (london),49.792318,40.383096,392,Yasamal rayonu,21009
1938,Yasamal r. Yeni Yasamal qəs. ev 6B Ulduzlu market,49.79265,40.395516,392,Yasamal rayonu,17000
1012,Yasamal r. Z.Əhmədbəyov küç. 68C Bakumart (london),49.829601,40.384998,392,Yasamal rayonu,1607
1999,Yasamal r. Z.Xəlilov küç. 31 Apelsin market (çöl kartomat),49.811709,40.376595,392,Yasamal rayonu,18019
92,Yasamal r. Z.Xəlilov küç. 33 BDU (1-ci korpus) ,49.811454,40.374643,392,Yasamal rayonu,97
53,Yasamal r. Z.Xəlilov küç. 33 BDU (2-ci korpus),49.811454,40.374643,392,Yasamal rayonu,55
16,Yasamal r. Z.Xəlilov küç. 33 BDU (əsas korpus),49.811454,40.374643,392,Yasamal rayonu,16
3065,Yasamal r. Z.Xəlilov küç. 41 Araz minimarket,49.811742,40.376219,392,Yasamal rayonu,51378
3227,Yasamal r. Z.Xəlilov küç. 568-ci məh. Bravo Express,49.81178,40.379276,392,Yasamal rayonu,51541
2525,Yasamal r. Z.Xəlilov küç. 576-cı məh. Renessans Palace Y/K Bravo Express,49.812334,40.383761,392,Yasamal rayonu,50134
1353,Yasamal r. Z.Xəlilov küç. 99 Real Hospital,49.8110829,40.3809861,392,Yasamal rayonu,2285
